{"type": "FeatureCollection", "features": [{"type": "Feature", "geometry": {"type": "LineString", "coordinates": [[-68.5810765, -29.5090046], [-68.58098862197745, -29.508412088819664], [-68.58000118526911, -29.508160227779776], [-68.57901374856075, -29.507908366739883], [-68.5780263118524, -29.50765650569999], [-68.57703887514404, -29.507404644660102], [-68.57605143843568, -29.50715278362021], [-68.57506400172733, -29.506900922580325], [-68.5748583934757, -29.506538948688792], [-68.5757071648677, -29.50602847579052], [-68.57655593625968, -29.50551800289224], [-68.57679275196779, -29.50537557584768]]}, "properties": {"segmento_id": "S0000", "km_inicio": 0.0, "km_fin": 1.0}}, {"type": "Feature", "geometry": {"type": "LineString", "coordinates": [[-68.57679275196779, -29.50537557584768], [-68.57764152335977, -29.504865102949402], [-68.57849029475177, -29.50435463005113], [-68.57933906614376, -29.503844157152855], [-68.58018783753575, -29.50333368425458], [-68.58103660892775, -29.502823211356304], [-68.58188538031973, -29.502312738458027], [-68.58273415171172, -29.501802265559753], [-68.58313598282267, -29.50103217984126], [-68.58333587441147, -29.500144794136435], [-68.58320310393131, -29.499263481388997], [-68.58310485952687, -29.499027128174326]]}, "properties": {"segmento_id": "S0001", "km_inicio": 1.0, "km_fin": 2.0}}, {"type": "Feature", "geometry": {"type": "LineString", "coordinates": [[-68.58310485952687, -29.499027128174326], [-68.58255536128456, -29.49826751031087], [-68.58178292629157, -29.497670987179106], [-68.58113619477675, -29.49697391706749], [-68.58101137151519, -29.496092586239662], [-68.58071549500495, -29.4952395970534], [-68.58094699525854, -29.494784787267175], [-68.58197432987197, -29.494750254388087], [-68.58300166448541, -29.494715721509], [-68.58402899909882, -29.494681188629905], [-68.58421556768957, -29.494568943853867], [-68.58393746257627, -29.494507109827143]]}, "properties": {"segmento_id": "S0002", "km_inicio": 2.0, "km_fin": 3.0}}, {"type": "Feature", "geometry": {"type": "LineString", "coordinates": [[-68.58393746257627, -29.494507109827143], [-68.58294070579008, -29.49428549043644], [-68.58194394900387, -29.494063871045743], [-68.58094719221768, -29.493842251655042], [-68.57995043543147, -29.493620632264346], [-68.57923191570352, -29.493066669756352], [-68.5786814796141, -29.492302988516762], [-68.57814208207924, -29.491540125833684], [-68.57764411241769, -29.4907508967896], [-68.57708235380926, -29.48999327520362], [-68.57770219101714, -29.48975662502061], [-68.57798844393818, -29.489740406462154]]}, "properties": {"segmento_id": "S0003", "km_inicio": 3.0, "km_fin": 4.0}}, {"type": "Feature", "geometry": {"type": "LineString", "coordinates": [[-68.57798844393818, -29.489740406462154], [-68.57901440328949, -29.48968227751223], [-68.58004036264079, -29.48962414856231], [-68.58106632199207, -29.489566019612383], [-68.58209228134336, -29.489507890662463], [-68.58311824069466, -29.489449761712542], [-68.58414420004596, -29.48939163276262], [-68.58517015939725, -29.4893335038127], [-68.58597208550744, -29.489033932837863], [-68.58624200925296, -29.488161019587825], [-68.58651193299849, -29.48728810633779], [-68.58658724442338, -29.487044554809817]]}, "properties": {"segmento_id": "S0004", "km_inicio": 4.0, "km_fin": 5.0}}, {"type": "Feature", "geometry": {"type": "LineString", "coordinates": [[-68.58658724442338, -29.487044554809817], [-68.5868571681689, -29.48617164155978], [-68.58712709191444, -29.485298728309743], [-68.58738342330076, -29.484423006751175], [-68.5875832169837, -29.483535603974357], [-68.58778301066663, -29.482648201197534], [-68.58798280434956, -29.48176079842072], [-68.5881825980325, -29.4808733956439], [-68.58838239171544, -29.479985992867082], [-68.58858218539837, -29.47909859009026], [-68.58878197908129, -29.47821118731344], [-68.58883772351726, -29.477963593062565]]}, "properties": {"segmento_id": "S0005", "km_inicio": 5.0, "km_fin": 6.0}}, {"type": "Feature", "geometry": {"type": "LineString", "coordinates": [[-68.58883772351726, -29.477963593062565], [-68.58903751720018, -29.47707619028575], [-68.5892373108831, -29.47618878750893], [-68.58943710456604, -29.47530138473211], [-68.58963689824898, -29.47441398195529], [-68.58983669193192, -29.473526579178472], [-68.59003648561485, -29.472639176401653], [-68.59023627929778, -29.47175177362483], [-68.59043607298072, -29.470864370848016], [-68.59063586666366, -29.469976968071197], [-68.59083566034658, -29.46908956529438], [-68.59089140478254, -29.468841971043503]]}, "properties": {"segmento_id": "S0006", "km_inicio": 6.0, "km_fin": 7.0}}, {"type": "Feature", "geometry": {"type": "LineString", "coordinates": [[-68.59089140478254, -29.468841971043503], [-68.59109119846548, -29.46795456826668], [-68.5912909921484, -29.467067165489862], [-68.59149078583133, -29.466179762713047], [-68.59169057951426, -29.465292359936228], [-68.5918903731972, -29.464404957159406], [-68.59209016688014, -29.463517554382587], [-68.59228996056306, -29.46263015160577], [-68.592489754246, -29.46174274882895], [-68.59268954792894, -29.460855346052128], [-68.59288934161188, -29.459967943275313], [-68.59294508604782, -29.459720349024437]]}, "properties": {"segmento_id": "S0007", "km_inicio": 7.0, "km_fin": 8.0}}, {"type": "Feature", "geometry": {"type": "LineString", "coordinates": [[-68.59294508604782, -29.459720349024437], [-68.59314487973076, -29.458832946247618], [-68.5933446734137, -29.4579455434708], [-68.5933150739943, -29.45705941195883], [-68.59310259377474, -29.456174293946965], [-68.59289011355517, -29.455289175935096], [-68.59267763333561, -29.45440405792323], [-68.59246515311605, -29.453518939911365], [-68.59225267289649, -29.4526338218995], [-68.59204019267693, -29.451748703887635], [-68.59182771245736, -29.450863585875766], [-68.5917684283508, -29.45061662909717]]}, "properties": {"segmento_id": "S0008", "km_inicio": 8.0, "km_fin": 9.0}}, {"type": "Feature", "geometry": {"type": "LineString", "coordinates": [[-68.5917684283508, -29.45061662909717], [-68.59155594813123, -29.449731511085304], [-68.59134346791167, -29.448846393073435], [-68.59113098769211, -29.44796127506157], [-68.59091850747255, -29.4470761570497], [-68.59070602725299, -29.44619103903784], [-68.59049354703343, -29.445305921025973], [-68.59028106681387, -29.444420803014104], [-68.59006858659431, -29.44353568500224], [-68.58985610637475, -29.442650566990377], [-68.58964362615518, -29.441765448978508], [-68.58958434204862, -29.441518492199908]]}, "properties": {"segmento_id": "S0009", "km_inicio": 9.0, "km_fin": 10.0}}, {"type": "Feature", "geometry": {"type": "LineString", "coordinates": [[-68.58958434204862, -29.441518492199908], [-68.58937186182905, -29.44063337418804], [-68.58915938160949, -29.439748256176173], [-68.58894690138993, -29.43886313816431], [-68.58873442117037, -29.437978020152443], [-68.58852194095081, -29.437092902140577], [-68.58830946073125, -29.43620778412871], [-68.5880969805117, -29.435322666116843], [-68.58788450029213, -29.43443754810498], [-68.58767202007257, -29.433552430093112], [-68.587459539853, -29.432667312081247], [-68.58740025574645, -29.43242035530265]]}, "properties": {"segmento_id": "S0010", "km_inicio": 10.0, "km_fin": 11.0}}, {"type": "Feature", "geometry": {"type": "LineString", "coordinates": [[-68.58740025574645, -29.43242035530265], [-68.58718777552689, -29.43153523729078], [-68.58697529530731, -29.430650119278916], [-68.58676281508775, -29.42976500126705], [-68.58655033486819, -29.42887988325518], [-68.58633785464862, -29.42799476524332], [-68.58612537442906, -29.42710964723145], [-68.58659207133735, -29.426472392595528], [-68.58734244894791, -29.425856166959257], [-68.58803721648692, -29.42519026419555], [-68.58861694663422, -29.424443561617576], [-68.58879059559477, -29.424242661021665]]}, "properties": {"segmento_id": "S0011", "km_inicio": 11.0, "km_fin": 12.0}}, {"type": "Feature", "geometry": {"type": "LineString", "coordinates": [[-68.58879059559477, -29.424242661021665], [-68.58941297099021, -29.423522613015525], [-68.59001218970072, -29.422787874825584], [-68.59060691313836, -29.42205005919123], [-68.59121970046377, -29.421323734107865], [-68.59190521759463, -29.420655070559654], [-68.59259767156027, -29.419989589252314], [-68.59316087440902, -29.41923875338767], [-68.59361859038748, -29.418430571131527], [-68.594505422042, -29.418034743319126], [-68.59529914543484, -29.41747602192756], [-68.59551126730358, -29.4173061124167]]}, "properties": {"segmento_id": "S0012", "km_inicio": 12.0, "km_fin": 13.0}}, {"type": "Feature", "geometry": {"type": "LineString", "coordinates": [[-68.59551126730358, -29.4173061124167], [-68.59613577119084, -29.416591715141962], [-68.59652367113267, -29.415761412343247], [-68.59701806006186, -29.414983813230883], [-68.59776006214422, -29.41436047944624], [-68.5985205715839, -29.413751741846998], [-68.59849024861556, -29.412889235755856], [-68.59835360331735, -29.411992612123456], [-68.59821695801912, -29.41109598849106], [-68.5980803127209, -29.41019936485866], [-68.59794366742268, -29.409302741226256], [-68.5979055420177, -29.409052574264447]]}, "properties": {"segmento_id": "S0013", "km_inicio": 13.0, "km_fin": 14.0}}, {"type": "Feature", "geometry": {"type": "LineString", "coordinates": [[-68.5979055420177, -29.409052574264447], [-68.59776889671949, -29.408155950632043], [-68.59763225142126, -29.407259326999643], [-68.59749560612305, -29.406362703367243], [-68.59735896082482, -29.405466079734843], [-68.59722231552661, -29.404569456102447], [-68.59708567022838, -29.403672832470047], [-68.59694902493017, -29.402776208837647], [-68.59681237963194, -29.401879585205247], [-68.59667573433373, -29.400982961572844], [-68.5965390890355, -29.400086337940444], [-68.59650096363052, -29.39983617097863]]}, "properties": {"segmento_id": "S0014", "km_inicio": 14.0, "km_fin": 15.0}}, {"type": "Feature", "geometry": {"type": "LineString", "coordinates": [[-68.59650096363052, -29.39983617097863], [-68.5963643183323, -29.39893954734623], [-68.5962276730341, -29.39804292371383], [-68.59609102773587, -29.397146300081435], [-68.59595438243764, -29.396249676449035], [-68.59581773713943, -29.395353052816635], [-68.59568109184121, -29.394456429184235], [-68.59554444654299, -29.393559805551835], [-68.59540780124476, -29.39266318191943], [-68.59527115594655, -29.391766558287035], [-68.59513451064834, -29.390869934654635], [-68.59509638524335, -29.390619767692826]]}, "properties": {"segmento_id": "S0015", "km_inicio": 15.0, "km_fin": 16.0}}, {"type": "Feature", "geometry": {"type": "LineString", "coordinates": [[-68.59509638524335, -29.390619767692826], [-68.59495973994512, -29.389723144060422], [-68.59482309464691, -29.388826520428022], [-68.5946864493487, -29.387929896795622], [-68.59454980405047, -29.387033273163222], [-68.59441315875225, -29.386136649530822], [-68.59427651345403, -29.385240025898426], [-68.59413986815582, -29.384343402266026], [-68.5940032228576, -29.383446778633623], [-68.59386657755937, -29.382550155001223], [-68.59372993226116, -29.381653531368823], [-68.59369180685617, -29.38140336440701]]}, "properties": {"segmento_id": "S0016", "km_inicio": 16.0, "km_fin": 17.0}}, {"type": "Feature", "geometry": {"type": "LineString", "coordinates": [[-68.59369180685617, -29.38140336440701], [-68.59355516155794, -29.38050674077461], [-68.59341851625973, -29.37961011714221], [-68.59328187096152, -29.37871349350981], [-68.59314522566329, -29.377816869877414], [-68.59300858036507, -29.376920246245014], [-68.59287193506685, -29.376023622612614], [-68.59273528976864, -29.37512699898021], [-68.59285653970163, -29.374262216520243], [-68.59326833235123, -29.37343330607192], [-68.59364533363104, -29.372591952850915], [-68.59374844570696, -29.3723564180517]]}, "properties": {"segmento_id": "S0017", "km_inicio": 17.0, "km_fin": 18.0}}, {"type": "Feature", "geometry": {"type": "LineString", "coordinates": [[-68.59374844570696, -29.3723564180517], [-68.59411800979085, -29.371512237566424], [-68.59469428737867, -29.370925567447408], [-68.59572200030856, -29.37090126639506], [-68.59674971323842, -29.370876965342706], [-68.5977774261683, -29.370852664290354], [-68.59880513909819, -29.370828363238004], [-68.59983285202807, -29.370804062185652], [-68.5998391011666, -29.370059005418543], [-68.59891357590828, -29.369818761034754], [-68.59790692207774, -29.369635014897792], [-68.59762605559008, -29.36958374788768]]}, "properties": {"segmento_id": "S0018", "km_inicio": 18.0, "km_fin": 19.0}}, {"type": "Feature", "geometry": {"type": "LineString", "coordinates": [[-68.59762605559008, -29.36958374788768], [-68.59661940175953, -29.36940000175071], [-68.595612747929, -29.369216255613743], [-68.59549815827496, -29.368793236646113], [-68.59623843694695, -29.368165486259677], [-68.59686991688895, -29.36745162079212], [-68.59750122562811, -29.366737619816117], [-68.59812531306238, -29.36601873328991], [-68.59874726900824, -29.365298404712195], [-68.5993503815195, -29.36456585609328], [-68.59970414764834, -29.363727429967604], [-68.59976887743889, -29.363481534175136]]}, "properties": {"segmento_id": "S0019", "km_inicio": 19.0, "km_fin": 20.0}}, {"type": "Feature", "geometry": {"type": "LineString", "coordinates": [[-68.59976887743889, -29.363481534175136], [-68.59999932621864, -29.36259990975693], [-68.60019561545636, -29.3617129671642], [-68.60055994213438, -29.36097400033755], [-68.60137638322459, -29.360426583014902], [-68.60114325119547, -29.35955452666674], [-68.60089254023512, -29.358677188277944], [-68.60120364583418, -29.35884112608208], [-68.60181775308449, -29.359566650049143], [-68.60225971878458, -29.360010413188558], [-68.60215971544739, -29.359766602794863]]}, "properties": {"segmento_id": "S0020", "km_inicio": 20.0, "km_fin": 21.0}}, {"type": "Feature", "geometry": {"type": "LineString", "coordinates": [[-68.60215971544739, -29.359766602794863], [-68.60181069358316, -29.358915679610643], [-68.60146167171895, -29.35806475642642], [-68.60177001974316, -29.358379356493863], [-68.60232911714282, -29.359138537660275], [-68.60288821454249, -29.359897718826694], [-68.60321521182459, -29.359399364181076], [-68.60356551676834, -29.35857100053902], [-68.60409226773622, -29.358342362684535], [-68.60500650995515, -29.358756137204875], [-68.60518978465798, -29.358952762694543]]}, "properties": {"segmento_id": "S0021", "km_inicio": 21.0, "km_fin": 22.0}}, {"type": "Feature", "geometry": {"type": "LineString", "coordinates": [[-68.60518978465798, -29.358952762694543], [-68.60576594670724, -29.359701999549184], [-68.60634210875651, -29.360451236403826], [-68.60718372089464, -29.36087783000557], [-68.60799198404875, -29.360785883459503], [-68.60855630097261, -29.3600309447373], [-68.60926742881527, -29.35940153368859], [-68.61012212318767, -29.359372565023513], [-68.61113066021326, -29.35951211609101], [-68.61215813851543, -29.35948106922689], [-68.61243949158127, -29.359441877791454]]}, "properties": {"segmento_id": "S0022", "km_inicio": 22.0, "km_fin": 23.0}}, {"type": "Feature", "geometry": {"type": "LineString", "coordinates": [[-68.61243949158127, -29.359441877791454], [-68.61287910811855, -29.358764115366924], [-68.61262753425969, -29.357886968255652], [-68.61245276118618, -29.357029237580534], [-68.6132568820361, -29.356475280490976], [-68.61424299582738, -29.356673139232218], [-68.6152453182044, -29.35670327474351], [-68.61600287432826, -29.356137455022314], [-68.61687639563625, -29.35570478621003], [-68.61777381998178, -29.35582814086113], [-68.61795382350998, -29.355756114437227]]}, "properties": {"segmento_id": "S0023", "km_inicio": 23.0, "km_fin": 24.0}}, {"type": "Feature", "geometry": {"type": "LineString", "coordinates": [[-68.61795382350998, -29.355756114437227], [-68.61871696782619, -29.355319659307753], [-68.61964313936765, -29.355637894168904], [-68.62044940053858, -29.356191632519252], [-68.62134254799804, -29.356639661874336], [-68.62181237680227, -29.35618660795545], [-68.6221176906862, -29.355324752248304], [-68.6225516689833, -29.354550879104536], [-68.62305196160675, -29.353773779865627], [-68.62390455045463, -29.353402785676693], [-68.62414577216745, -29.35326584078034]]}, "properties": {"segmento_id": "S0024", "km_inicio": 24.0, "km_fin": 25.0}}, {"type": "Feature", "geometry": {"type": "LineString", "coordinates": [[-68.62414577216745, -29.35326584078034], [-68.62478417144197, -29.352564180841306], [-68.62549078897548, -29.3519109562038], [-68.62551284108673, -29.351268422282704], [-68.62635865065685, -29.35078197374275], [-68.62735788655678, -29.350994773503267], [-68.62829394811061, -29.351121733136495], [-68.6279899238061, -29.350260006252466], [-68.62839767663684, -29.350170655584275], [-68.62929809376591, -29.350607272832633], [-68.62890153794996, -29.349875737474513], [-68.62893430866244, -29.349515586558095], [-68.62985108111161, -29.349925003401747], [-68.6306877240666, -29.350282302011344], [-68.62997398138297, -29.34963119089106], [-68.62980189146475, -29.349474202018154]]}, "properties": {"segmento_id": "S0025", "km_inicio": 25.0, "km_fin": 26.0}}, {"type": "Feature", "geometry": {"type": "LineString", "coordinates": [[-68.62980189146475, -29.349474202018154], [-68.62922909833101, -29.34880973502636], [-68.6296173184814, -29.34798683906532], [-68.62961008149684, -29.347094565345877], [-68.62950586964848, -29.34619560081212], [-68.62983035623925, -29.34537174698265], [-68.6294351563727, -29.344562502726376], [-68.62901249672883, -29.343752004724863], [-68.62917557553872, -29.342891067898602], [-68.6299593997667, -29.342385036375873], [-68.63039530413278, -29.341989256350235], [-68.63130636685617, -29.34240842575108], [-68.63221742957955, -29.34282759515193], [-68.63312849230296, -29.343246764552777], [-68.63403955502635, -29.343665933953623], [-68.63425922061896, -29.343766999547103]]}, "properties": {"segmento_id": "S0026", "km_inicio": 26.0, "km_fin": 27.0}}, {"type": "Feature", "geometry": {"type": "LineString", "coordinates": [[-68.63425922061896, -29.343766999547103], [-68.63517028334235, -29.344186168947957], [-68.63438321037748, -29.343653593482024], [-68.63356632880753, -29.34310431134945], [-68.6327494472376, -29.34255502921688], [-68.63193256566765, -29.342005747084308], [-68.63111568409772, -29.341456464951733], [-68.63071774127438, -29.340869647885558], [-68.63154345416719, -29.34085710606781], [-68.63246327156928, -29.34126120019551], [-68.63338308897137, -29.341665294323217], [-68.63430290637345, -29.342069388450923], [-68.63522272377554, -29.342473482578626], [-68.63563245724991, -29.342589728023587], [-68.63483138979771, -29.342022698750696], [-68.63463824507552, -29.341885982783666]]}, "properties": {"segmento_id": "S0027", "km_inicio": 27.0, "km_fin": 28.0}}, {"type": "Feature", "geometry": {"type": "LineString", "coordinates": [[-68.63463824507552, -29.341885982783666], [-68.63383717762329, -29.341318953510775], [-68.63303611017108, -29.340751924237885], [-68.63223504271886, -29.340184894964995], [-68.632376501469, -29.34015998309544], [-68.63328819422833, -29.34057809048623], [-68.63419988698766, -29.340996197877022], [-68.635111579747, -29.34141430526781], [-68.63598663460671, -29.341746444971694], [-68.63626128473685, -29.340886566055357], [-68.6356772946523, -29.340258582795023], [-68.63482365814457, -29.33975443044983], [-68.63397002163684, -29.33925027810463], [-68.63311638512911, -29.338746125759435], [-68.63398147172624, -29.339081653052755], [-68.63420755043589, -29.33917110057513]]}, "properties": {"segmento_id": "S0028", "km_inicio": 28.0, "km_fin": 29.0}}, {"type": "Feature", "geometry": {"type": "LineString", "coordinates": [[-68.63420755043589, -29.33917110057513], [-68.63514521155281, -29.33954208404308], [-68.63608287266972, -29.33991306751103], [-68.63626140248071, -29.33979870957488], [-68.63557071106581, -29.339128625577967], [-68.63488001965092, -29.338458541581055], [-68.63484109932601, -29.338221184045274], [-68.63576293738015, -29.338621697043763], [-68.63668477543432, -29.339022210042245], [-68.63713179092409, -29.339119563172385], [-68.63641312155355, -29.33847266172136], [-68.63569445218302, -29.337825760270338], [-68.63626511967207, -29.33743977304606], [-68.63716398678321, -29.33701922404059], [-68.63796738375062, -29.336462202088548], [-68.63808682025449, -29.336271071875057]]}, "properties": {"segmento_id": "S0029", "km_inicio": 29.0, "km_fin": 30.0}}, {"type": "Feature", "geometry": {"type": "LineString", "coordinates": [[-68.63808682025449, -29.336271071875057], [-68.63839393276864, -29.335424587533264], [-68.63904199501417, -29.33523462432937], [-68.64002504437585, -29.33549944102846], [-68.64002308813124, -29.335306543981662], [-68.63922022765021, -29.33474148166411], [-68.63940075031663, -29.334098018192343], [-68.64023687965984, -29.333586992520438], [-68.64094405972438, -29.333028074765455], [-68.64082046963868, -29.33218594662594], [-68.64055822932959, -29.331318332504352], [-68.640944360274, -29.33049882306761], [-68.64177556789143, -29.33036210837621], [-68.64257508556832, -29.330001940658136], [-68.64301738101938, -29.329200872767807], [-68.64317773059229, -29.32903458720153]]}, "properties": {"segmento_id": "S0030", "km_inicio": 30.0, "km_fin": 31.0}}, {"type": "Feature", "geometry": {"type": "LineString", "coordinates": [[-68.64317773059229, -29.32903458720153], [-68.64407134585038, -29.328870475466356], [-68.64505787672341, -29.328937199850785], [-68.64570070857607, -29.32823493148003], [-68.64615680385444, -29.32743613915776], [-68.64642636136786, -29.326577831777076], [-68.64654886448862, -29.32568036501239], [-68.64663989965875, -29.324782615872287], [-68.64664537994194, -29.32388171540524], [-68.64682828385736, -29.323000852000533], [-68.64733243657618, -29.322218878057544], [-68.64732679562559, -29.321329457537935], [-68.64742602316379, -29.32043792719453], [-68.64789201662924, -29.319645818275788], [-68.64835478049764, -29.31884186406123], [-68.64847060526513, -29.318649319434066]]}, "properties": {"segmento_id": "S0031", "km_inicio": 31.0, "km_fin": 32.0}}, {"type": "Feature", "geometry": {"type": "LineString", "coordinates": [[-68.64847060526513, -29.318649319434066], [-68.64898379828809, -29.31786546200882], [-68.64950795050942, -29.317087277290923], [-68.65008466999265, -29.316340091639347], [-68.65082280581242, -29.315713964935206], [-68.6516061715349, -29.31513025974911], [-68.65243580704406, -29.314595988006996], [-68.65336763379219, -29.314229396558915], [-68.6543345712308, -29.313927173441424], [-68.65534563523458, -29.314063909049473], [-68.65634415480471, -29.31427514199832], [-68.65727509498113, -29.313952541310172], [-68.6582611866663, -29.313697232362642], [-68.65924324621184, -29.313429587499293], [-68.66008135178946, -29.31323967608637]]}, "properties": {"segmento_id": "S0032", "km_inicio": 32.0, "km_fin": 33.0}}, {"type": "Feature", "geometry": {"type": "LineString", "coordinates": [[-68.66008135178946, -29.31323967608637], [-68.661059798412, -29.312962066704813], [-68.6620428305431, -29.312697910570563], [-68.66300355147182, -29.31238704465592], [-68.66386646521643, -29.311907136468285], [-68.66483213050495, -29.31168678153629], [-68.66582993974245, -29.31188593919671], [-68.66681084738622, -29.312155364473394], [-68.66768024954648, -29.312102850490383], [-68.66823399961622, -29.31137821701799], [-68.66880690098428, -29.310631389783694], [-68.66956800447771, -29.310023227331584], [-68.67037846089806, -29.309470924740406], [-68.67107883639655, -29.308808669552423], [-68.67166911337705, -29.308250423698002]]}, "properties": {"segmento_id": "S0033", "km_inicio": 33.0, "km_fin": 34.0}}, {"type": "Feature", "geometry": {"type": "LineString", "coordinates": [[-68.67166911337705, -29.308250423698002], [-68.67236884316424, -29.30758764021749], [-68.67306857295144, -29.306924856736977], [-68.67376889918535, -29.306262582889488], [-68.67450122758636, -29.30562765324696], [-68.67523355598736, -29.304992723604432], [-68.67596588438836, -29.304357793961906], [-68.67669982288393, -29.303724317749154], [-68.67743984723501, -29.3030963352284], [-68.67817987158607, -29.302468352707645], [-68.67891989593714, -29.30184037018689], [-68.67965992028822, -29.301212387666133], [-68.68039994463929, -29.300584405145383], [-68.68114785592986, -29.2999637653754], [-68.68178358320733, -29.29944560202595]]}, "properties": {"segmento_id": "S0034", "km_inicio": 34.0, "km_fin": 35.0}}, {"type": "Feature", "geometry": {"type": "LineString", "coordinates": [[-68.68178358320733, -29.29944560202595], [-68.68253781634101, -29.298830847899996], [-68.68328918847052, -29.298223487414855], [-68.6842484255736, -29.297898169891646], [-68.68522260212704, -29.297610307295287], [-68.6853194089209, -29.29692215050104], [-68.6860309456411, -29.2969149373919], [-68.6870194774012, -29.297055240759526], [-68.68798977960762, -29.29675622994527], [-68.68820930841692, -29.296052727577003], [-68.68818462036613, -29.2951782331059], [-68.68903546980272, -29.294670445874313], [-68.68978109159659, -29.29425851080435]]}, "properties": {"segmento_id": "S0035", "km_inicio": 35.0, "km_fin": 36.0}}, {"type": "Feature", "geometry": {"type": "LineString", "coordinates": [[-68.68978109159659, -29.29425851080435], [-68.69079886970474, -29.29422113494282], [-68.69182266424937, -29.294190594077087], [-68.69284310937634, -29.29409534159267], [-68.69386104409183, -29.294026406768083], [-68.6947943053281, -29.293675591383735], [-68.69553586794416, -29.2930513184706], [-68.69626591546665, -29.29292923667294], [-68.69684770725219, -29.293675097440126], [-68.69742949903772, -29.294420958207308], [-68.69801129082326, -29.295166818974494], [-68.69863552119183, -29.295867636750838], [-68.69931107814323, -29.296063572895246]]}, "properties": {"segmento_id": "S0036", "km_inicio": 36.0, "km_fin": 37.0}}, {"type": "Feature", "geometry": {"type": "LineString", "coordinates": [[-68.69931107814323, -29.296063572895246], [-68.69890859050089, -29.295231131161046], [-68.69850610285856, -29.294398689426842], [-68.69810361521623, -29.293566247692638], [-68.69770112757391, -29.292733805958438], [-68.69729863993157, -29.291901364224234], [-68.69802205901311, -29.291342100208507], [-68.69885213102202, -29.29080835004674], [-68.69968112341296, -29.29027330143468], [-68.70060408719071, -29.289879501129203], [-68.70154286223787, -29.289510802217926], [-68.70248713036649, -29.289153029579985], [-68.70328104947278, -29.28881695389675]]}, "properties": {"segmento_id": "S0037", "km_inicio": 37.0, "km_fin": 38.0}}, {"type": "Feature", "geometry": {"type": "LineString", "coordinates": [[-68.70328104947278, -29.28881695389675], [-68.70414705513943, -29.28833082339433], [-68.70500090483546, -29.287826951009542], [-68.70585466088092, -29.28732295541814], [-68.70670841692638, -29.28681895982674], [-68.70756217297183, -29.286314964235334], [-68.70842062490968, -29.28581794749219], [-68.70938016695146, -29.285499214389848], [-68.71038891986444, -29.285327382034353], [-68.71134633358902, -29.28500635648374], [-68.71219547769813, -29.284501721411377], [-68.71283347262973, -29.283802102158436], [-68.71339563151302, -29.283208960203606]]}, "properties": {"segmento_id": "S0038", "km_inicio": 38.0, "km_fin": 39.0}}, {"type": "Feature", "geometry": {"type": "LineString", "coordinates": [[-68.71339563151302, -29.283208960203606], [-68.71410384292095, -29.282553293131162], [-68.71479640879525, -29.281884708853543], [-68.71546555263639, -29.281197991539912], [-68.7161309823644, -29.280508398807804], [-68.7168480838456, -29.279861457066964], [-68.71764374607555, -29.279295886614495], [-68.7185670508377, -29.27889854871043], [-68.71948955893457, -29.27849924497281], [-68.72042070720899, -29.27812002601866], [-68.72135853239982, -29.277757087458006], [-68.7222620629455, -29.277326202419765], [-68.72302604032762, -29.27693893016314]]}, "properties": {"segmento_id": "S0039", "km_inicio": 39.0, "km_fin": 40.0}}, {"type": "Feature", "geometry": {"type": "LineString", "coordinates": [[-68.72302604032762, -29.27693893016314], [-68.72389082219306, -29.276452163886365], [-68.72457273652651, -29.275788224623817], [-68.7246250601238, -29.27488992914943], [-68.72501967752066, -29.27408986303314], [-68.72519467237518, -29.27332245929729], [-68.72556071797361, -29.272478925776312], [-68.72594422992427, -29.27165148534203], [-68.72624851317363, -29.270790165673773], [-68.72646435904964, -29.269905919627806], [-68.72675916859987, -29.26925759916945]]}, "properties": {"segmento_id": "S0040", "km_inicio": 40.0, "km_fin": 41.0}}, {"type": "Feature", "geometry": {"type": "LineString", "coordinates": [[-68.72675916859987, -29.26925759916945], [-68.72719484016407, -29.268438918417537], [-68.72762413706558, -29.267618526085172], [-68.72778628205613, -29.266730845753134], [-68.72769812112388, -29.265834960378793], [-68.72758283706985, -29.264942673658993], [-68.72728235089652, -29.26408769687083], [-68.72721395134661, -29.263215621491593], [-68.72755947085471, -29.262364721238807], [-68.72804128670732, -29.261567119935968], [-68.72849706823926, -29.260992104569862]]}, "properties": {"segmento_id": "S0041", "km_inicio": 41.0, "km_fin": 42.0}}, {"type": "Feature", "geometry": {"type": "LineString", "coordinates": [[-68.72849706823926, -29.260992104569862], [-68.72901098120258, -29.260245349878474], [-68.72893652706549, -29.2593430754047], [-68.7288620729284, -29.25844080093093], [-68.7287876187913, -29.257538526457157], [-68.72871316465421, -29.256636251983387], [-68.72863871051712, -29.255733977509614], [-68.72856425638003, -29.25483170303584], [-68.72848980224293, -29.25392942856207], [-68.72841534810584, -29.253027154088297], [-68.72835759148806, -29.252327228953874]]}, "properties": {"segmento_id": "S0042", "km_inicio": 42.0, "km_fin": 43.0}}, {"type": "Feature", "geometry": {"type": "LineString", "coordinates": [[-68.72835759148806, -29.252327228953874], [-68.72828313735097, -29.2514249544801], [-68.7282086832139, -29.250522680006327], [-68.7281342290768, -29.249620405532557], [-68.7280597749397, -29.248718131058784], [-68.7279853208026, -29.247815856585014], [-68.72791086666552, -29.24691358211124], [-68.72783641252843, -29.246011307637467], [-68.72776195839133, -29.2451090331637], [-68.72768750425425, -29.244206758689927], [-68.72762974763646, -29.2435068335555]]}, "properties": {"segmento_id": "S0043", "km_inicio": 43.0, "km_fin": 44.0}}, {"type": "Feature", "geometry": {"type": "LineString", "coordinates": [[-68.72762974763646, -29.2435068335555], [-68.72755529349938, -29.242604559081727], [-68.72748083936229, -29.241702284607957], [-68.7274063852252, -29.240800010134183], [-68.7273319310881, -29.239897735660417], [-68.72700244468315, -29.239105354624296], [-68.72623808851347, -29.23850035902681], [-68.7254730252957, -29.237896834585936], [-68.72444729270582, -29.237835685511712], [-68.72342156011594, -29.237774536437488], [-68.72262566603229, -29.237730114197795]]}, "properties": {"segmento_id": "S0044", "km_inicio": 44.0, "km_fin": 45.0}}, {"type": "Feature", "geometry": {"type": "LineString", "coordinates": [[-68.72262566603229, -29.237730114197795], [-68.72160531125023, -29.237649413181362], [-68.72060390549072, -29.237460874578098], [-68.71961086989627, -29.2372557111818], [-68.71869839850362, -29.236857575842016], [-68.71779499749732, -29.236454551442097], [-68.71680519896816, -29.236248094328612], [-68.7157804120123, -29.23620352180746], [-68.71487522599594, -29.235848121169916], [-68.71440578460644, -29.235043645574507], [-68.71394029541305, -29.234237036607645], [-68.71347480621966, -29.23343042764079], [-68.71329511023241, -29.23311904684683]]}, "properties": {"segmento_id": "S0045", "km_inicio": 45.0, "km_fin": 46.0}}, {"type": "Feature", "geometry": {"type": "LineString", "coordinates": [[-68.71329511023241, -29.23311904684683], [-68.71282962103903, -29.232312437879976], [-68.7132900862579, -29.23156005447915], [-68.7131092143417, -29.230671205593787], [-68.71295430490247, -29.229777120905027], [-68.71233272896221, -29.22906926344641], [-68.71181518362776, -29.22831520215206], [-68.7115374619176, -29.22744418497714], [-68.71125974020741, -29.226573167802222], [-68.71126758951132, -29.2256970651667], [-68.71084436804993, -29.224879480467376], [-68.71021776698993, -29.224168530010637], [-68.70994174450848, -29.223917636545917]]}, "properties": {"segmento_id": "S0046", "km_inicio": 46.0, "km_fin": 47.0}}, {"type": "Feature", "geometry": {"type": "LineString", "coordinates": [[-68.70994174450848, -29.223917636545917], [-68.71002998649945, -29.223113766817725], [-68.70980369002011, -29.222581152363272], [-68.70956768576265, -29.22223702790616], [-68.71035917852646, -29.221659681575456], [-68.71115067129028, -29.221082335244752], [-68.71194216405411, -29.220504988914044], [-68.71262180114051, -29.219827284104575], [-68.7132899551796, -29.219142348430278], [-68.71285632675172, -29.21875597028164], [-68.71185323660644, -29.218954233200844], [-68.71085014646115, -29.21915249612005], [-68.71046291668976, -29.21922903291511]]}, "properties": {"segmento_id": "S0047", "km_inicio": 47.0, "km_fin": 48.0}}, {"type": "Feature", "geometry": {"type": "LineString", "coordinates": [[-68.71046291668976, -29.21922903291511], [-68.70972732933139, -29.21919989707584], [-68.70987271547472, -29.218347767436725], [-68.70932931592927, -29.217588108524232], [-68.7086461900908, -29.21692595034841], [-68.70808981393232, -29.21619564368445], [-68.7078807443234, -29.215310476202177], [-68.70744977986664, -29.214498051887215], [-68.70680671406222, -29.213856196283764], [-68.70577888582244, -29.21387389236889], [-68.70490427004972, -29.2136529157925], [-68.70462992271506, -29.21278396016559], [-68.7045515381816, -29.21244164964961]]}, "properties": {"segmento_id": "S0048", "km_inicio": 48.0, "km_fin": 49.0}}, {"type": "Feature", "geometry": {"type": "LineString", "coordinates": [[-68.7045515381816, -29.21244164964961], [-68.70371032731069, -29.211970516622078], [-68.7028062684049, -29.211539765682055], [-68.70190220949912, -29.21110901474203], [-68.70099815059334, -29.210678263802006], [-68.70009409168756, -29.21024751286198], [-68.70062414284233, -29.209641970740012], [-68.7013611088294, -29.20901120957169], [-68.70184317164032, -29.20824387938708], [-68.70237771385946, -29.207471125064906], [-68.70296058802549, -29.206726705115702], [-68.70372530285775, -29.20612206056215], [-68.70402051097147, -29.20588864547642]]}, "properties": {"segmento_id": "S0049", "km_inicio": 49.0, "km_fin": 50.0}}, {"type": "Feature", "geometry": {"type": "LineString", "coordinates": [[-68.70402051097147, -29.20588864547642], [-68.70477270073253, -29.20527233944874], [-68.70472325278531, -29.204713808550864], [-68.70383458880369, -29.20425892847099], [-68.70294592482205, -29.203804048391117], [-68.7020572608404, -29.203349168311238], [-68.70116859685878, -29.202894288231363], [-68.70117701315709, -29.202812286092218], [-68.70214072797275, -29.203127360727457], [-68.70310444278842, -29.203442435362696], [-68.70406815760407, -29.203757509997935], [-68.70503187241972, -29.204072584633174], [-68.70594617322652, -29.204245171449543], [-68.70650220127018, -29.20348812643324], [-68.70605708288126, -29.202941185038323], [-68.70513179386974, -29.20254688178202], [-68.70420650485823, -29.20215257852572], [-68.70328121584672, -29.20175827526942], [-68.70255945662245, -29.201447713475925]]}, "properties": {"segmento_id": "S0050", "km_inicio": 50.0, "km_fin": 51.0}}, {"type": "Feature", "geometry": {"type": "LineString", "coordinates": [[-68.70255945662245, -29.201447713475925], [-68.70354033110371, -29.20171870261013], [-68.70452120558495, -29.201989691744338], [-68.70550208006621, -29.20226068087854], [-68.70648295454745, -29.202531670012746], [-68.70720357401363, -29.202311985285764], [-68.70763399144487, -29.20149355948514], [-68.70698380667274, -29.200958710929154], [-68.70610118911618, -29.20049480525179], [-68.70521857155963, -29.200030899574426], [-68.70433595400307, -29.199566993897065], [-68.70413326252121, -29.19939188340812], [-68.70509508846254, -29.199711395851224], [-68.70605691440389, -29.200030908294334], [-68.70701874034523, -29.200350420737443], [-68.70798056628658, -29.200669933180553], [-68.70797360951943, -29.200549467191795], [-68.70712044822511, -29.200044692381642], [-68.70641919207951, -29.19962979259642]]}, "properties": {"segmento_id": "S0051", "km_inicio": 51.0, "km_fin": 52.0}}, {"type": "Feature", "geometry": {"type": "LineString", "coordinates": [[-68.70641919207951, -29.19962979259642], [-68.7055660307852, -29.19912501778627], [-68.7050410935906, -29.19857632313068], [-68.70593544739268, -29.198566562649297], [-68.7069234008603, -29.198816849658016], [-68.70791135432793, -29.199067136666734], [-68.70889930779555, -29.199317423675456], [-68.70988726126318, -29.199567710684175], [-68.70924663958344, -29.199287007719292], [-68.70831187777742, -29.19891040162206], [-68.7073771159714, -29.198533795524828], [-68.70644235416538, -29.198157189427597], [-68.70627995455123, -29.197719246968756], [-68.70714262387978, -29.197228709954683], [-68.7081496667529, -29.19714035919073], [-68.7091363247058, -29.196924336007136], [-68.71015512004054, -29.196930298395834], [-68.71116238724001, -29.197111423159164], [-68.71199031077407, -29.197260298705032]]}, "properties": {"segmento_id": "S0052", "km_inicio": 52.0, "km_fin": 53.0}}, {"type": "Feature", "geometry": {"type": "LineString", "coordinates": [[-68.71199031077407, -29.197260298705032], [-68.71299757797355, -29.19744142346836], [-68.71382021265909, -29.19713602907498], [-68.71444927155761, -29.196423242688486], [-68.71498601951438, -29.19565341419069], [-68.71534428434774, -29.194805470562827], [-68.71570254918107, -29.193957526934966], [-68.71606081401444, -29.1931095833071], [-68.71641907884778, -29.192261639679234], [-68.71677734368113, -29.19141369605137], [-68.71713560851448, -29.190565752423502], [-68.71749387334783, -29.18971780879564], [-68.71785213818117, -29.188869865167778], [-68.71821040301452, -29.18802192153991], [-68.71856866784788, -29.187173977912046], [-68.71870651632116, -29.186314733881325], [-68.71846258626486, -29.1854359166611], [-68.71822161593809, -29.184556472362125], [-68.718026490624, -29.183832989930142]]}, "properties": {"segmento_id": "S0053", "km_inicio": 53.0, "km_fin": 54.0}}, {"type": "Feature", "geometry": {"type": "LineString", "coordinates": [[-68.718026490624, -29.183832989930142], [-68.71778909753081, -29.182952787721657], [-68.71755170443762, -29.182072585513172], [-68.71738872903049, -29.181180022467434], [-68.71724376563807, -29.180284736621687], [-68.71703450707794, -29.1793991358668], [-68.71675334548628, -29.178528973611005], [-68.71658603410533, -29.17764634774489], [-68.71674330026885, -29.17675238517131], [-68.71679457269914, -29.175856687326508], [-68.71709381539664, -29.174994086634012], [-68.7172625573242, -29.17410724639681], [-68.717637811811, -29.173265383433915], [-68.71812689464424, -29.172469722654412], [-68.71864447983313, -29.17168818051157], [-68.71911173143327, -29.170883414300796], [-68.71977480668663, -29.170197432675973], [-68.72027978578645, -29.169485007742157], [-68.72045536705478, -29.168759513683217]]}, "properties": {"segmento_id": "S0054", "km_inicio": 54.0, "km_fin": 55.0}}, {"type": "Feature", "geometry": {"type": "LineString", "coordinates": [[-68.72045536705478, -29.168759513683217], [-68.72101923963467, -29.168018640455816], [-68.72160660656739, -29.16727618517065], [-68.72229642376823, -29.166608675038503], [-68.72302199039719, -29.165974628376883], [-68.72391427751685, -29.165525273644498], [-68.72476800451354, -29.165025560799588], [-68.72565350064343, -29.164568678098615], [-68.72645738175603, -29.164007661571656], [-68.72705580775268, -29.16328568300519], [-68.72749079747223, -29.16268709048178]]}, "properties": {"segmento_id": "S0055", "km_inicio": 55.0, "km_fin": 56.0}}, {"type": "Feature", "geometry": {"type": "LineString", "coordinates": [[-68.72749079747223, -29.16268709048178], [-68.72812931239143, -29.161985627604263], [-68.7286293117497, -29.161195915547818], [-68.72885542422155, -29.16032358341494], [-68.728915282702, -29.159421336731114], [-68.7290166671337, -29.158521201475935], [-68.72930705110161, -29.157684249118887], [-68.72954064844487, -29.15680859842865], [-68.73004381085477, -29.156026303960303], [-68.7306440648058, -29.15529188677801], [-68.73101981438347, -29.154658639195368]]}, "properties": {"segmento_id": "S0056", "km_inicio": 56.0, "km_fin": 57.0}}, {"type": "Feature", "geometry": {"type": "LineString", "coordinates": [[-68.73101981438347, -29.154658639195368], [-68.73150969364613, -29.153867640436033], [-68.73207689934958, -29.153113288838995], [-68.73255108974821, -29.152316971747823], [-68.73295528138942, -29.15149800633937], [-68.73351644263192, -29.15074016002643], [-68.7338672131094, -29.149917712935505], [-68.73395142733716, -29.14902529019901], [-68.73450712466476, -29.148275264817226], [-68.73508003051893, -29.14752792041638], [-68.73542379563558, -29.146878034915964]]}, "properties": {"segmento_id": "S0057", "km_inicio": 57.0, "km_fin": 58.0}}, {"type": "Feature", "geometry": {"type": "LineString", "coordinates": [[-68.73542379563558, -29.146878034915964], [-68.7358446792613, -29.1460526805504], [-68.73641946148226, -29.145315316904437], [-68.73709930207002, -29.144640660898865], [-68.737750979183, -29.143943190618163], [-68.73831198142321, -29.143194321875487], [-68.73874822155682, -29.142380094293546], [-68.73916550285804, -29.141558098473226], [-68.73970906090207, -29.140790229529372], [-68.74001019466425, -29.139929506846585], [-68.74023462201981, -29.139253384818446]]}, "properties": {"segmento_id": "S0058", "km_inicio": 58.0, "km_fin": 59.0}}, {"type": "Feature", "geometry": {"type": "LineString", "coordinates": [[-68.74023462201981, -29.139253384818446], [-68.73996409139203, -29.138394038489082], [-68.7399232620653, -29.13750451956586], [-68.73995202383095, -29.136600680033606], [-68.74011714535911, -29.135709045667433], [-68.74037484903928, -29.134836082334896], [-68.7408044450731, -29.134014541566888], [-68.74144512079913, -29.1333083366988], [-68.74201368560703, -29.132557100712106], [-68.74247194662684, -29.13175192192482], [-68.74265366108672, -29.1310565253458]]}, "properties": {"segmento_id": "S0059", "km_inicio": 59.0, "km_fin": 60.0}}, {"type": "Feature", "geometry": {"type": "LineString", "coordinates": [[-68.74265366108672, -29.1310565253458], [-68.7428725697354, -29.13017617114826], [-68.74307304730154, -29.129293947795873], [-68.74335880742922, -29.128424946203054], [-68.74360788552649, -29.127547697080484], [-68.74394271050296, -29.126698672900194], [-68.74413121006451, -29.125818597228438], [-68.74467474417924, -29.125065689766956], [-68.74492627086812, -29.124189461411575], [-68.7454326272038, -29.123410133873644], [-68.74579277226593, -29.122567632072784], [-68.74611833380393, -29.12214280755778]]}, "properties": {"segmento_id": "S0060", "km_inicio": 60.0, "km_fin": 61.0}}, {"type": "Feature", "geometry": {"type": "LineString", "coordinates": [[-68.74611833380393, -29.12214280755778], [-68.74700311057009, -29.12169761834256], [-68.74796178285091, -29.121380484327325], [-68.74863801915943, -29.120712513603944], [-68.74918041711173, -29.119944045476327], [-68.74985923699454, -29.119274678168992], [-68.7502649104574, -29.118443434697497], [-68.75056928514805, -29.117596146350103], [-68.75078932508156, -29.11671596915913], [-68.75119999335156, -29.11589605834128], [-68.751328190407, -29.115002005928122], [-68.75133837787023, -29.114489694688984]]}, "properties": {"segmento_id": "S0061", "km_inicio": 61.0, "km_fin": 62.0}}, {"type": "Feature", "geometry": {"type": "LineString", "coordinates": [[-68.75133837787023, -29.114489694688984], [-68.75140562893216, -29.113591447688968], [-68.75163373783828, -29.11271079723849], [-68.75181700390188, -29.11182177906705], [-68.75199158172265, -29.110940931715955], [-68.75188536257815, -29.110042609724765], [-68.75204338523552, -29.109170817690018], [-68.75234843373735, -29.108308119427015], [-68.75261965977072, -29.107437970725663], [-68.75299512818603, -29.10659625078146], [-68.75332396105549, -29.105739124472674], [-68.75350873781355, -29.105253216056095]]}, "properties": {"segmento_id": "S0062", "km_inicio": 62.0, "km_fin": 63.0}}, {"type": "Feature", "geometry": {"type": "LineString", "coordinates": [[-68.75350873781355, -29.105253216056095], [-68.75388626908578, -29.104412444682158], [-68.7545707912102, -29.103753951419417], [-68.75518978418411, -29.103031649372994], [-68.75580378513109, -29.102306072502873], [-68.75616963909698, -29.101510584512795], [-68.75606196058439, -29.100617689299185], [-68.75620126761646, -29.09972384832808], [-68.75603934973066, -29.09883420671575], [-68.75581642085787, -29.09795210102452], [-68.75558995012895, -29.097070301467774], [-68.75545401169335, -29.096572594732574]]}, "properties": {"segmento_id": "S0063", "km_inicio": 63.0, "km_fin": 64.0}}, {"type": "Feature", "geometry": {"type": "LineString", "coordinates": [[-68.75545401169335, -29.096572594732574], [-68.75515956048407, -29.09570600727478], [-68.75491352094578, -29.0948346066121], [-68.75508772588557, -29.093954671586552], [-68.7554923971198, -29.0931235676857], [-68.75584182356367, -29.092272773075944], [-68.7562860284862, -29.091456927808256], [-68.7567257782663, -29.09063925312444], [-68.75714975048214, -29.089815110641734], [-68.75761281442779, -29.089007733157057], [-68.75808931474197, -29.08820611803421], [-68.75835920239072, -29.087752086810553]]}, "properties": {"segmento_id": "S0064", "km_inicio": 64.0, "km_fin": 65.0}}, {"type": "Feature", "geometry": {"type": "LineString", "coordinates": [[-68.75835920239072, -29.087752086810553], [-68.7588357027049, -29.086950471687707], [-68.75943080753434, -29.086216770978798], [-68.7598695741308, -29.08540569577559], [-68.76030409409759, -29.08459642208537], [-68.76106373092423, -29.083998289614293], [-68.7616510303104, -29.083282435597635], [-68.76208715590124, -29.082480457830282], [-68.76257925207071, -29.081686985240133], [-68.76317217732534, -29.0809479442472], [-68.7635699633958, -29.08011728373954], [-68.76369311306362, -29.079621712624903]]}, "properties": {"segmento_id": "S0065", "km_inicio": 65.0, "km_fin": 66.0}}, {"type": "Feature", "geometry": {"type": "LineString", "coordinates": [[-68.76369311306362, -29.079621712624903], [-68.7639673824754, -29.07875124622394], [-68.7642493681119, -29.07788129712914], [-68.76442984888672, -29.07699119839066], [-68.76478297394601, -29.076149373700833], [-68.76526196977528, -29.075348910994503], [-68.76588117109438, -29.074630183957126], [-68.76653207313727, -29.073929937507554], [-68.76718297518015, -29.073229691057982], [-68.76783387722303, -29.072529444608403], [-68.76808921970313, -29.071658359559923], [-68.76832700308218, -29.071194030141655]]}, "properties": {"segmento_id": "S0066", "km_inicio": 66.0, "km_fin": 67.0}}, {"type": "Feature", "geometry": {"type": "LineString", "coordinates": [[-68.76832700308218, -29.071194030141655], [-68.76839096709239, -29.070307272392952], [-68.76931375001335, -29.07041648666096], [-68.76943331280233, -29.070258894903475], [-68.76862604896294, -29.069719438490495], [-68.76921875856193, -29.06898026356756], [-68.77004546905458, -29.068528400623393], [-68.77084161186168, -29.06796131297708], [-68.77154969521678, -29.067308575905397], [-68.77237675654261, -29.066822960023387], [-68.77339673430362, -29.06670958141263], [-68.77327788020129, -29.06641249903959]]}, "properties": {"segmento_id": "S0067", "km_inicio": 67.0, "km_fin": 68.0}}, {"type": "Feature", "geometry": {"type": "LineString", "coordinates": [[-68.77327788020129, -29.06641249903959], [-68.77335850305184, -29.065817414877284], [-68.77412149812683, -29.065232207356825], [-68.77477862851717, -29.0645421396133], [-68.77520360288815, -29.06372043385119], [-68.77571509551736, -29.062944000928397], [-68.77646978535792, -29.062332073805578], [-68.77724662981907, -29.06173952259923], [-68.77816165518531, -29.061342280023794], [-68.77890754755335, -29.060750238018393], [-68.77960293582834, -29.06008443082012], [-68.7800551184958, -29.05977229454018]]}, "properties": {"segmento_id": "S0068", "km_inicio": 68.0, "km_fin": 69.0}}, {"type": "Feature", "geometry": {"type": "LineString", "coordinates": [[-68.7800551184958, -29.05977229454018], [-68.78096545058236, -29.05935189782823], [-68.7812652728373, -29.058591917858042], [-68.78191887689081, -29.057937577355982], [-68.78207409706259, -29.057049925125312], [-68.78214340598683, -29.05616521654638], [-68.78182201359277, -29.055305907174564], [-68.78162332129642, -29.05441983024715], [-68.78136114990369, -29.053545413966663], [-68.78109122414766, -29.052672501197996], [-68.78097344858294, -29.051775962251593], [-68.78092492681536, -29.051265355012607]]}, "properties": {"segmento_id": "S0069", "km_inicio": 69.0, "km_fin": 70.0}}, {"type": "Feature", "geometry": {"type": "LineString", "coordinates": [[-68.78092492681536, -29.051265355012607], [-68.78083365027396, -29.05036550613029], [-68.780555567759, -29.0494958867138], [-68.78041495572458, -29.048603599486498], [-68.78050328950881, -29.047703435085012], [-68.78064866194711, -29.046807874786694], [-68.78088223982611, -29.045927134264872], [-68.78113516563779, -29.04505059072871], [-68.78143680674721, -29.044185755025975], [-68.78183618758744, -29.043359138202305], [-68.7823526757435, -29.04272128695128]]}, "properties": {"segmento_id": "S0070", "km_inicio": 70.0, "km_fin": 71.0}}, {"type": "Feature", "geometry": {"type": "LineString", "coordinates": [[-68.7823526757435, -29.04272128695128], [-68.78241638171629, -29.041828667518836], [-68.78240101514328, -29.040924958605554], [-68.78266860998397, -29.040063983670983], [-68.78303301494067, -29.039228417020762], [-68.78246077321832, -29.038552213464552], [-68.78161687996315, -29.038066984925617], [-68.78110479859605, -29.03728576269771], [-68.78082674819049, -29.036419809240005], [-68.78045746318995, -29.03557570629354], [-68.78003292133657, -29.034875514270922]]}, "properties": {"segmento_id": "S0071", "km_inicio": 71.0, "km_fin": 72.0}}, {"type": "Feature", "geometry": {"type": "LineString", "coordinates": [[-68.78003292133657, -29.034875514270922], [-68.77939379039326, -29.03416780317051], [-68.77877017505777, -29.033450104015156], [-68.77824788598457, -29.03267093151153], [-68.77770517790815, -29.03190259690828], [-68.77726358731053, -29.03108713365616], [-68.77718755371077, -29.030188738882334], [-68.77707685807086, -29.029289349738416], [-68.77672242320872, -29.028445848815572], [-68.77637620836721, -29.027595333341765], [-68.77613094577747, -29.026829903193043]]}, "properties": {"segmento_id": "S0072", "km_inicio": 72.0, "km_fin": 73.0}}, {"type": "Feature", "geometry": {"type": "LineString", "coordinates": [[-68.77613094577747, -29.026829903193043], [-68.77604545056705, -29.025930702716423], [-68.7760078661903, -29.025026657534482], [-68.77597028181354, -29.024122612352546], [-68.7759326974368, -29.023218567170606], [-68.77589511306005, -29.022314521988672], [-68.77585752868329, -29.021410476806736], [-68.7757597896113, -29.020511156094955], [-68.77542574171966, -29.019656152684924], [-68.7750855113591, -29.018802477027545], [-68.77478613645025, -29.018051312223516]]}, "properties": {"segmento_id": "S0073", "km_inicio": 73.0, "km_fin": 74.0}}, {"type": "Feature", "geometry": {"type": "LineString", "coordinates": [[-68.77478613645025, -29.018051312223516], [-68.77446402308952, -29.0171925176727], [-68.77420602122781, -29.016319415248063], [-68.77413656982996, -29.015416831925204], [-68.77406711843211, -29.014514248602353], [-68.77399766703427, -29.013611665279495], [-68.77392239685567, -29.0127094815331], [-68.77382657009156, -29.011808816308058], [-68.77381978569981, -29.01091707503237], [-68.77407207620847, -29.010041646286034], [-68.77408393567664, -29.00924633693147]]}, "properties": {"segmento_id": "S0074", "km_inicio": 74.0, "km_fin": 75.0}}, {"type": "Feature", "geometry": {"type": "LineString", "coordinates": [[-68.77408393567664, -29.00924633693147], [-68.77418198983537, -29.008345811010237], [-68.77427439629265, -29.007444953475844], [-68.77431318450917, -29.006540947666995], [-68.77435197272565, -29.005636941858143], [-68.7742666191434, -29.00473777956539], [-68.77420905983168, -29.003836838751052], [-68.77409480842336, -29.002939597773693], [-68.77429682600564, -29.002052584926137], [-68.77429303555175, -29.001165512615557], [-68.77414343821616, -29.00038045434854]]}, "properties": {"segmento_id": "S0075", "km_inicio": 75.0, "km_fin": 76.0}}, {"type": "Feature", "geometry": {"type": "LineString", "coordinates": [[-68.77414343821616, -29.00038045434854], [-68.77407525476188, -28.999478860994763], [-68.77398197460043, -28.9985783453789], [-68.7740009160881, -28.997678310670405], [-68.77395409690834, -28.996779328755707], [-68.77378681789612, -28.995886734201846], [-68.77363404495976, -28.994992635577308], [-68.77356096070329, -28.99409027438695], [-68.77348787644684, -28.99318791319659], [-68.77347810019924, -28.99228433262191], [-68.77349835212375, -28.991488684180048]]}, "properties": {"segmento_id": "S0076", "km_inicio": 76.0, "km_fin": 77.0}}, {"type": "Feature", "geometry": {"type": "LineString", "coordinates": [[-68.77349835212375, -28.991488684180048], [-68.77343334072545, -28.990585844815843], [-68.77336832932713, -28.98968300545163], [-68.7733267453129, -28.988779312246646], [-68.77330772180838, -28.98787482075799], [-68.77329664442578, -28.986970223372133], [-68.77328556704319, -28.986065625986278], [-68.77331973648427, -28.985161827055727], [-68.77337202128527, -28.984258347800775], [-68.77342430608626, -28.983354868545824], [-68.77347031243767, -28.982559880646587]]}, "properties": {"segmento_id": "S0077", "km_inicio": 77.0, "km_fin": 78.0}}, {"type": "Feature", "geometry": {"type": "LineString", "coordinates": [[-68.77347031243767, -28.982559880646587], [-68.77376411034679, -28.981702575077545], [-68.77408871048362, -28.98085251558437], [-68.77429753264798, -28.979966723740457], [-68.77450635481235, -28.979080931896544], [-68.77459129366252, -28.978181855704612], [-68.77463034226693, -28.97727785857558], [-68.7748243333778, -28.976402901724686], [-68.77520732677776, -28.975563368846007], [-68.77574835830174, -28.97479498632772], [-68.7761927049809, -28.974101843776566]]}, "properties": {"segmento_id": "S0078", "km_inicio": 78.0, "km_fin": 79.0}}, {"type": "Feature", "geometry": {"type": "LineString", "coordinates": [[-68.7761927049809, -28.974101843776566], [-68.77656384556124, -28.973267488079507], [-68.77659541314927, -28.972371388534217], [-68.7763523365922, -28.971492388222504], [-68.77610926003513, -28.970613387910795], [-68.77586618347806, -28.969734387599082], [-68.77562310692099, -28.96885538728737], [-68.77542705212639, -28.967969015244982], [-68.77534084089102, -28.967069045654316], [-68.77532703369064, -28.96616906564484], [-68.77508722265583, -28.965401526929163]]}, "properties": {"segmento_id": "S0079", "km_inicio": 79.0, "km_fin": 80.0}}, {"type": "Feature", "geometry": {"type": "LineString", "coordinates": [[-68.77508722265583, -28.965401526929163], [-68.77500712630403, -28.96450776332783], [-68.77502353171519, -28.963603228612175], [-68.77503993712637, -28.962698693896517], [-68.77515099866211, -28.961800880960617], [-68.77529964743545, -28.960905737193077], [-68.7754482962088, -28.96001059342553], [-68.775628407373, -28.959120620013373], [-68.77585694080321, -28.958238604048713], [-68.77608581383403, -28.957356658721256], [-68.77633026978761, -28.9564779546544], [-68.77637477314343, -28.956317986041753]]}, "properties": {"segmento_id": "S0080", "km_inicio": 80.0, "km_fin": 81.0}}, {"type": "Feature", "geometry": {"type": "LineString", "coordinates": [[-68.77637477314343, -28.956317986041753], [-68.77661922909701, -28.955439281974893], [-68.77686368505059, -28.954560577908037], [-68.77710814100416, -28.95368187384118], [-68.77722154820543, -28.952784564867688], [-68.77743963170633, -28.951900673174638], [-68.77725392067629, -28.951034946879908], [-68.7775663839086, -28.950179768232655], [-68.7779020703527, -28.949324701192776], [-68.77823458563839, -28.948468674957805], [-68.77856669148193, -28.94761252706942], [-68.77862585564817, -28.947456279984113]]}, "properties": {"segmento_id": "S0081", "km_inicio": 81.0, "km_fin": 82.0}}, {"type": "Feature", "geometry": {"type": "LineString", "coordinates": [[-68.77862585564817, -28.947456279984113], [-68.77895084311062, -28.946598018184993], [-68.77917868495608, -28.945719229527562], [-68.77949243758911, -28.94487526170724], [-68.77983992356457, -28.944042272870462], [-68.78034368835002, -28.94326613442326], [-68.78069557833004, -28.94241906822062], [-68.78088189063516, -28.941529397463064], [-68.78118200969966, -28.940667478937556], [-68.78154268949645, -28.939820328388077], [-68.78180326539523, -28.938950773474648], [-68.78182931949515, -28.938787684921525]]}, "properties": {"segmento_id": "S0082", "km_inicio": 82.0, "km_fin": 83.0}}, {"type": "Feature", "geometry": {"type": "LineString", "coordinates": [[-68.78182931949515, -28.938787684921525], [-68.78200948527082, -28.937897610964093], [-68.78217469676451, -28.937008069324534], [-68.78218616879774, -28.936103475747302], [-68.78243603483294, -28.935233651729924], [-68.78275685153329, -28.934374175805956], [-68.7833038269819, -28.933610611407833], [-68.78373555363277, -28.932792520030766], [-68.78403704360618, -28.931948005226253], [-68.78390216170541, -28.931051174876348], [-68.78376727980466, -28.930154344526443], [-68.78385101770367, -28.93000867301316]]}, "properties": {"segmento_id": "S0083", "km_inicio": 83.0, "km_fin": 84.0}}, {"type": "Feature", "geometry": {"type": "LineString", "coordinates": [[-68.78385101770367, -28.93000867301316], [-68.78427725428662, -28.9291895331854], [-68.78450836070762, -28.92832025259261], [-68.78439611022216, -28.9274210111072], [-68.78419282455984, -28.92653702912112], [-68.78392150338766, -28.925664451383955], [-68.78382692020237, -28.924764448650535], [-68.78378576959248, -28.923860890110586], [-68.78376441679185, -28.922956435351733], [-68.78388767048641, -28.922061170286085], [-68.78421116079532, -28.921208362947688], [-68.78427081794939, -28.92105368328808]]}, "properties": {"segmento_id": "S0084", "km_inicio": 84.0, "km_fin": 85.0}}, {"type": "Feature", "geometry": {"type": "LineString", "coordinates": [[-68.78427081794939, -28.92105368328808], [-68.78437868776852, -28.920154026755288], [-68.78465731456811, -28.919283699802545], [-68.78469689366045, -28.918391411506445], [-68.78462699942816, -28.917488854651996], [-68.78476560117961, -28.916602672615067], [-68.78522500152015, -28.915800739222323], [-68.78555767312642, -28.914956242785916], [-68.78568896029675, -28.914060111356118], [-68.78579828842544, -28.913160600766183], [-68.7860251172539, -28.912554855501615]]}, "properties": {"segmento_id": "S0085", "km_inicio": 85.0, "km_fin": 86.0}}, {"type": "Feature", "geometry": {"type": "LineString", "coordinates": [[-68.7860251172539, -28.912554855501615], [-68.78647336552032, -28.911742269344753], [-68.78695546602252, -28.9109432511055], [-68.78734317721474, -28.910111600295178], [-68.78790102871884, -28.909355739041015], [-68.78817929436329, -28.908491600550462], [-68.7882461972057, -28.907592546900833], [-68.78837412708646, -28.90669653793994], [-68.78864013378836, -28.905826365755562], [-68.78890655190854, -28.904952689133577], [-68.78912751568534, -28.904342514423963]]}, "properties": {"segmento_id": "S0086", "km_inicio": 86.0, "km_fin": 87.0}}, {"type": "Feature", "geometry": {"type": "LineString", "coordinates": [[-68.78912751568534, -28.904342514423963], [-68.7892297401031, -28.903485554596205], [-68.78909190315422, -28.90262040311939], [-68.7896155346062, -28.901847315541175], [-68.78992397190592, -28.900994570788185], [-68.79013950085294, -28.900113326440216], [-68.79032430501182, -28.899238267910814], [-68.79021721540836, -28.898339479425324], [-68.79005050092292, -28.89744757741726], [-68.79013685136213, -28.896650963165186], [-68.79060935855824, -28.896163057689858]]}, "properties": {"segmento_id": "S0087", "km_inicio": 87.0, "km_fin": 88.0}}, {"type": "Feature", "geometry": {"type": "LineString", "coordinates": [[-68.79060935855824, -28.896163057689858], [-68.79057957519005, -28.89531263529604], [-68.79030957630928, -28.894439740038127], [-68.78990092051733, -28.893611175268415], [-68.78949118268893, -28.89278279534977], [-68.78920524716578, -28.89191383843023], [-68.78891931164264, -28.891044881510688], [-68.7884830327367, -28.89023187018936], [-68.78803906435752, -28.889421831570804], [-68.78787864687507, -28.8885293222246], [-68.78777853915798, -28.887894371343144]]}, "properties": {"segmento_id": "S0088", "km_inicio": 88.0, "km_fin": 89.0}}, {"type": "Feature", "geometry": {"type": "LineString", "coordinates": [[-68.78777853915798, -28.887894371343144], [-68.78759592927109, -28.88700432135067], [-68.78768534998923, -28.88610626153988], [-68.78780153278794, -28.885207428959788], [-68.78797352959575, -28.884315528919494], [-68.78814552640354, -28.883423628879207], [-68.78831752321135, -28.882531728838917], [-68.78848952001913, -28.881639828798622], [-68.78866151682693, -28.880747928758336], [-68.78883351363473, -28.879856028718045], [-68.78896232498225, -28.879225313395494]]}, "properties": {"segmento_id": "S0089", "km_inicio": 89.0, "km_fin": 90.0}}, {"type": "Feature", "geometry": {"type": "LineString", "coordinates": [[-68.78896232498225, -28.879225313395494], [-68.78917042426345, -28.878340353065433], [-68.78918902546559, -28.87746534281137], [-68.78876220706826, -28.87664233862923], [-68.78849200999812, -28.875782224291935], [-68.78866705097023, -28.87493187115633], [-68.78928202899152, -28.87420724522069], [-68.78990777635076, -28.873489463615414], [-68.79044020751216, -28.872716247368963], [-68.79098727174018, -28.871961642220633], [-68.79193194405735, -28.87160469670822], [-68.79242078882504, -28.87124455511771]]}, "properties": {"segmento_id": "S0090", "km_inicio": 90.0, "km_fin": 91.0}}, {"type": "Feature", "geometry": {"type": "LineString", "coordinates": [[-68.79242078882504, -28.87124455511771], [-68.79325881981681, -28.870721028182647], [-68.79398831944924, -28.87009612401569], [-68.79462844619904, -28.8693886475661], [-68.79517924174883, -28.868624782078058], [-68.79573003729858, -28.867860916590015], [-68.79628083284835, -28.86709705110197], [-68.79685521633112, -28.86634793639197], [-68.79749389843508, -28.86563903099958], [-68.79813258053905, -28.864930125607184], [-68.7988086232503, -28.8642562788697], [-68.79933264347326, -28.863936705475325]]}, "properties": {"segmento_id": "S0091", "km_inicio": 91.0, "km_fin": 92.0}}, {"type": "Feature", "geometry": {"type": "LineString", "coordinates": [[-68.79933264347326, -28.863936705475325], [-68.80018389363433, -28.863429728325038], [-68.80099192271705, -28.862890163346837], [-68.80158417826917, -28.862150706682804], [-68.80217342312216, -28.861409520960333], [-68.80272875520167, -28.86064965877916], [-68.80331056848024, -28.859909058960316], [-68.80375427721421, -28.859093000686684], [-68.8042537272715, -28.858302522626808], [-68.80476025996988, -28.857515294857055], [-68.80518542515772, -28.856691758790106], [-68.80544741067114, -28.856180289692077]]}, "properties": {"segmento_id": "S0092", "km_inicio": 92.0, "km_fin": 93.0}}, {"type": "Feature", "geometry": {"type": "LineString", "coordinates": [[-68.80544741067114, -28.856180289692077], [-68.80584285268985, -28.855345693916952], [-68.80630452715984, -28.854553781644825], [-68.80695899899099, -28.85385896546366], [-68.80755955368937, -28.853124709909633], [-68.80816010838775, -28.852390454355604], [-68.80876066308613, -28.851656198801575], [-68.8093612177845, -28.85092194324755], [-68.81027143975773, -28.850509951080014], [-68.81119409525301, -28.850110898183914], [-68.8120558904212, -28.84962550301831], [-68.81256209336803, -28.849284416733475]]}, "properties": {"segmento_id": "S0093", "km_inicio": 93.0, "km_fin": 94.0}}, {"type": "Feature", "geometry": {"type": "LineString", "coordinates": [[-68.81256209336803, -28.849284416733475], [-68.81317757403453, -28.84856525283905], [-68.81376660768024, -28.84782380620561], [-68.81435564132595, -28.84708235957217], [-68.81494467497166, -28.84634091293873], [-68.81553370861738, -28.84559946630529], [-68.81612274226309, -28.844858019671854], [-68.8167117759088, -28.844116573038413], [-68.81730080955452, -28.843375126404972], [-68.81788984320023, -28.84263367977153], [-68.81847887684594, -28.841892233138093], [-68.81884416794716, -28.841432422634572]]}, "properties": {"segmento_id": "S0094", "km_inicio": 94.0, "km_fin": 95.0}}, {"type": "Feature", "geometry": {"type": "LineString", "coordinates": [[-68.81884416794716, -28.841432422634572], [-68.81943320159289, -28.84069097600113], [-68.82002223523861, -28.83994952936769], [-68.82065431579444, -28.83923722523722], [-68.82131777971418, -28.838546167458066], [-68.82198124363391, -28.837855109678905], [-68.82264504135514, -28.837164300592562], [-68.82331022998065, -28.83647452777451], [-68.82397541860615, -28.83578475495646], [-68.82464060723167, -28.835094982138408], [-68.82497523215088, -28.83474799007529]]}, "properties": {"segmento_id": "S0095", "km_inicio": 95.0, "km_fin": 96.0}}, {"type": "Feature", "geometry": {"type": "LineString", "coordinates": [[-68.82497523215088, -28.83474799007529], [-68.8256404207764, -28.834058217257237], [-68.8263056094019, -28.833368444439184], [-68.8269707980274, -28.83267867162113], [-68.82763598665291, -28.831988898803075], [-68.82830117527841, -28.831299125985023], [-68.82896636390392, -28.83060935316697], [-68.82963155252942, -28.829919580348918], [-68.83030696969881, -28.829237710008787], [-68.83099821285813, -28.828568066681346], [-68.83134594458036, -28.828231200812386]]}, "properties": {"segmento_id": "S0096", "km_inicio": 96.0, "km_fin": 97.0}}, {"type": "Feature", "geometry": {"type": "LineString", "coordinates": [[-68.83134594458036, -28.828231200812386], [-68.83215919424552, -28.827682432583366], [-68.83299932652018, -28.827161104366066], [-68.83385364095818, -28.826657841951285], [-68.83471325190551, -28.826161778476212], [-68.83560450079807, -28.82571344994377], [-68.83653156539746, -28.825322389330164], [-68.83727116521693, -28.824764847785065], [-68.83812856720805, -28.82431917148239], [-68.83909172569581, -28.82417974834069], [-68.83958434909032, -28.82405085289373]]}, "properties": {"segmento_id": "S0097", "km_inicio": 97.0, "km_fin": 98.0}}, {"type": "Feature", "geometry": {"type": "LineString", "coordinates": [[-68.83958434909032, -28.82405085289373], [-68.84056288341593, -28.8237844621], [-68.84133457805518, -28.82323290115939], [-68.84201777257024, -28.822568336019145], [-68.842925980243, -28.822170204909177], [-68.84379785579355, -28.821698426674992], [-68.8447137712496, -28.821291601778984], [-68.84569014132519, -28.8211622], [-68.84662981527927, -28.820875202035275], [-68.84755514724608, -28.820489738126543], [-68.84803178753764, -28.820499048111138]]}, "properties": {"segmento_id": "S0098", "km_inicio": 98.0, "km_fin": 99.0}}, {"type": "Feature", "geometry": {"type": "LineString", "coordinates": [[-68.84803178753764, -28.820499048111138], [-68.84895662708834, -28.82089416698841], [-68.8499234059838, -28.82120119442704], [-68.85085726327361, -28.821578479307963], [-68.85184506556416, -28.821435425725856], [-68.85274126490016, -28.821121435419563], [-68.85376738133407, -28.821176198200316], [-68.85474878282925, -28.820918720120236], [-68.85574622848672, -28.82103552846288], [-68.85662354114558, -28.821507161208995], [-68.85710483389725, -28.821664548139303]]}, "properties": {"segmento_id": "S0099", "km_inicio": 99.0, "km_fin": 100.0}}, {"type": "Feature", "geometry": {"type": "LineString", "coordinates": [[-68.85710483389725, -28.821664548139303], [-68.8580715860184, -28.82196733102691], [-68.85889074930385, -28.822513827460334], [-68.85976105942902, -28.822902288799504], [-68.86078101468011, -28.822802713495694], [-68.86176722062558, -28.822641784945915], [-68.86263024042971, -28.82218815856284], [-68.8634806416455, -28.821679790293857], [-68.86433104286127, -28.82117142202487], [-68.86518144407705, -28.820663053755887], [-68.86560924068574, -28.820407317736926]]}, "properties": {"segmento_id": "S0100", "km_inicio": 100.0, "km_fin": 101.0}}, {"type": "Feature", "geometry": {"type": "LineString", "coordinates": [[-68.86560924068574, -28.820407317736926], [-68.86645964190154, -28.81989894946794], [-68.86731004311731, -28.819390581198956], [-68.8681604443331, -28.81888221292997], [-68.86901084554889, -28.818373844660986], [-68.86986124676466, -28.817865476392], [-68.87071164798044, -28.817357108123016], [-68.87156204919621, -28.81684873985403], [-68.872412450412, -28.816340371585046], [-68.87326285162779, -28.81583200331606], [-68.87369064823649, -28.8155762672971]]}, "properties": {"segmento_id": "S0101", "km_inicio": 101.0, "km_fin": 102.0}}, {"type": "Feature", "geometry": {"type": "LineString", "coordinates": [[-68.87369064823649, -28.8155762672971], [-68.87454104945226, -28.815067899028115], [-68.87539145066805, -28.814559530759134], [-68.87624185188383, -28.81405116249015], [-68.8770922530996, -28.813542794221163], [-68.87794265431539, -28.81303442595218], [-68.87879305553118, -28.812526057683193], [-68.87964345674695, -28.81201768941421], [-68.88049385796273, -28.811509321145223], [-68.88134425917852, -28.81100095287624], [-68.88177205578722, -28.810745216857278]]}, "properties": {"segmento_id": "S0102", "km_inicio": 102.0, "km_fin": 103.0}}, {"type": "Feature", "geometry": {"type": "LineString", "coordinates": [[-68.88177205578722, -28.810745216857278], [-68.882622457003, -28.810236848588293], [-68.88347285821878, -28.809728480319308], [-68.88432325943455, -28.809220112050323], [-68.88517366065035, -28.808711743781338], [-68.88602406186612, -28.808203375512353], [-68.88687446308191, -28.807695007243368], [-68.8877248642977, -28.807186638974382], [-68.88857526551347, -28.806678270705397], [-68.88942566672925, -28.806169902436412], [-68.88985346333794, -28.805914166417455]]}, "properties": {"segmento_id": "S0103", "km_inicio": 103.0, "km_fin": 104.0}}, {"type": "Feature", "geometry": {"type": "LineString", "coordinates": [[-68.88985346333794, -28.805914166417455], [-68.89070386455374, -28.80540579814847], [-68.89155426576951, -28.804897429879485], [-68.89233486843133, -28.804337744319973], [-68.89275222025147, -28.803510989488682], [-68.89351206087852, -28.802918799444303], [-68.89445788794956, -28.802567424430805], [-68.89448881656352, -28.801743540259235], [-68.89453171763702, -28.800839736527553], [-68.89459749421226, -28.79993701404315], [-68.8946331212927, -28.799483008565176]]}, "properties": {"segmento_id": "S0104", "km_inicio": 104.0, "km_fin": 105.0}}, {"type": "Feature", "geometry": {"type": "LineString", "coordinates": [[-68.8946331212927, -28.799483008565176], [-68.89475140203672, -28.798586516033108], [-68.89484850392178, -28.797689918659152], [-68.89476612061134, -28.796788427426], [-68.89466212012393, -28.79588841818291], [-68.89475192415465, -28.79500707626588], [-68.8953316885314, -28.794260212417118], [-68.89596982380922, -28.793551137951358], [-68.89667257278602, -28.792927640188662], [-68.89752197571711, -28.792440278251586], [-68.89802211679431, -28.792324642211334]]}, "properties": {"segmento_id": "S0105", "km_inicio": 105.0, "km_fin": 106.0}}, {"type": "Feature", "geometry": {"type": "LineString", "coordinates": [[-68.89802211679431, -28.792324642211334], [-68.89893989111388, -28.791949196093526], [-68.8996869635791, -28.79132904625783], [-68.89992748943028, -28.790514866906424], [-68.89997908561307, -28.789611356999178], [-68.90015784226902, -28.788767249815304], [-68.90100646219332, -28.788256581968326], [-68.9018550821176, -28.78774591412135], [-68.9027037020419, -28.78723524627437], [-68.90355232196619, -28.786724578427396], [-68.90397922249144, -28.786467685599565]]}, "properties": {"segmento_id": "S0106", "km_inicio": 106.0, "km_fin": 107.0}}, {"type": "Feature", "geometry": {"type": "LineString", "coordinates": [[-68.90397922249144, -28.786467685599565], [-68.90482784241573, -28.78595701775259], [-68.90567646234001, -28.785446349905612], [-68.9065250822643, -28.784935682058638], [-68.9073737021886, -28.78442501421166], [-68.90822232211289, -28.783914346364682], [-68.90907094203718, -28.783403678517704], [-68.90991956196146, -28.78289301067073], [-68.91076818188576, -28.78238234282375], [-68.91161680181004, -28.78187167497677], [-68.9120437023353, -28.781614782148946]]}, "properties": {"segmento_id": "S0107", "km_inicio": 107.0, "km_fin": 108.0}}, {"type": "Feature", "geometry": {"type": "LineString", "coordinates": [[-68.9120437023353, -28.781614782148946], [-68.91289232225958, -28.78110411430197], [-68.91374094218386, -28.78059344645499], [-68.91458956210816, -28.780082778608016], [-68.91543818203246, -28.779572110761038], [-68.91628680195674, -28.779061442914063], [-68.91713542188103, -28.77855077506708], [-68.91798404180531, -28.778040107220104], [-68.91883266172961, -28.77752943937313], [-68.91968128165391, -28.77701877152615], [-68.92010818217915, -28.776761878698323]]}, "properties": {"segmento_id": "S0108", "km_inicio": 108.0, "km_fin": 109.0}}, {"type": "Feature", "geometry": {"type": "LineString", "coordinates": [[-68.92010818217915, -28.776761878698323], [-68.92099442140574, -28.776326614474566], [-68.92185025141362, -28.775881495600096], [-68.92278015272052, -28.77557715084296], [-68.92380409279458, -28.77560999316732], [-68.92482949847764, -28.775635148768703], [-68.92569448759161, -28.776099477329023], [-68.92643982833371, -28.77672257254099], [-68.92718516907581, -28.777345667752957], [-68.9279291839188, -28.777969973404623], [-68.92829895156167, -28.778288150230868]]}, "properties": {"segmento_id": "S0109", "km_inicio": 109.0, "km_fin": 110.0}}, {"type": "Feature", "geometry": {"type": "LineString", "coordinates": [[-68.92829895156167, -28.778288150230868], [-68.92920430915376, -28.778705730155583], [-68.92994510131783, -28.77932845016495], [-68.9306728781419, -28.77996741919113], [-68.93140065496597, -28.78060638821731], [-68.93169677576407, -28.780866374536934]]}, "properties": {"segmento_id": "S0110", "km_inicio": 110.0, "km_fin": 111.0}}, {"type": "Feature", "geometry": {"type": "LineString", "coordinates": [[-68.93169677576407, -28.780866374536934], [-68.93242455258815, -28.781505343563108], [-68.9331892195876, -28.780953845159218], [-68.93395548627923, -28.780350723758463], [-68.93472175297086, -28.779747602357705], [-68.93503353468303, -28.77950220186591]]}, "properties": {"segmento_id": "S0111", "km_inicio": 111.0, "km_fin": 112.0}}, {"type": "Feature", "geometry": {"type": "LineString", "coordinates": [[-68.93503353468303, -28.77950220186591], [-68.93579980137466, -28.778899080465152], [-68.93656606806627, -28.778295959064398], [-68.9373323347579, -28.77769283766364], [-68.93809860144952, -28.777089716262882], [-68.9384103831617, -28.776844315771083]]}, "properties": {"segmento_id": "S0112", "km_inicio": 112.0, "km_fin": 113.0}}, {"type": "Feature", "geometry": {"type": "LineString", "coordinates": [[-68.9384103831617, -28.776844315771083], [-68.93917664985331, -28.77624119437033], [-68.93994291654495, -28.77563807296957], [-68.94070918323656, -28.775034951568813], [-68.94147544992819, -28.774431830168055], [-68.94146717718583, -28.774081691059905]]}, "properties": {"segmento_id": "S0113", "km_inicio": 113.0, "km_fin": 114.0}}, {"type": "Feature", "geometry": {"type": "LineString", "coordinates": [[-68.94146717718583, -28.774081691059905], [-68.94106669835939, -28.773248499496937], [-68.94066621953297, -28.772415307933965], [-68.94026574070654, -28.771582116371], [-68.93986526188012, -28.770748924808032], [-68.93970231342423, -28.770409912431653]]}, "properties": {"segmento_id": "S0114", "km_inicio": 114.0, "km_fin": 115.0}}, {"type": "Feature", "geometry": {"type": "LineString", "coordinates": [[-68.93970231342423, -28.770409912431653], [-68.93993078909185, -28.770372553205373], [-68.94053343429097, -28.771087711260076], [-68.9409885874606, -28.771898874625084], [-68.94144374063022, -28.772710037990098], [-68.94153743362331, -28.772379651421417], [-68.9414503221022, -28.771478254836662], [-68.94218643660099, -28.771079000714114], [-68.94293283950091, -28.770894629288254]]}, "properties": {"segmento_id": "S0115", "km_inicio": 115.0, "km_fin": 116.0}}, {"type": "Feature", "geometry": {"type": "LineString", "coordinates": [[-68.94293283950091, -28.770894629288254], [-68.94392266290411, -28.77065012976633], [-68.9449124863073, -28.770405630244404], [-68.9459023097105, -28.77016113072248], [-68.9468921331137, -28.76991663120056], [-68.9478819565169, -28.769672131678632], [-68.9488717799201, -28.76942763215671], [-68.9498616033233, -28.769183132634783], [-68.95060800622322, -28.76899876120893]]}, "properties": {"segmento_id": "S0116", "km_inicio": 116.0, "km_fin": 117.0}}, {"type": "Feature", "geometry": {"type": "LineString", "coordinates": [[-68.95060800622322, -28.76899876120893], [-68.95159782962642, -28.768754261687004], [-68.95258765302962, -28.76850976216508], [-68.95357747643281, -28.76826526264316], [-68.95456729983601, -28.768020763121232], [-68.95555712323922, -28.76777626359931], [-68.95654694664242, -28.767531764077386], [-68.9575367700456, -28.767287264555456], [-68.95828317294553, -28.7671028931296]]}, "properties": {"segmento_id": "S0117", "km_inicio": 117.0, "km_fin": 118.0}}, {"type": "Feature", "geometry": {"type": "LineString", "coordinates": [[-68.95828317294553, -28.7671028931296], [-68.95927299634873, -28.766858393607677], [-68.96026281975193, -28.766613894085754], [-68.96125264315512, -28.766369394563828], [-68.96224246655832, -28.766124895041905], [-68.96323228996152, -28.765880395519982], [-68.96422211336471, -28.765635895998056], [-68.96521193676791, -28.765391396476133], [-68.96595833966784, -28.765207025050273]]}, "properties": {"segmento_id": "S0118", "km_inicio": 118.0, "km_fin": 119.0}}, {"type": "Feature", "geometry": {"type": "LineString", "coordinates": [[-68.96595833966784, -28.765207025050273], [-68.96694816307104, -28.76496252552835], [-68.96793798647423, -28.764718026006424], [-68.96892780987744, -28.7644735264845], [-68.96991763328063, -28.764229026962578], [-68.97090745668382, -28.763984527440652], [-68.97189728008703, -28.76374002791873], [-68.97288710349022, -28.763495528396803], [-68.97363350639014, -28.76331115697095]]}, "properties": {"segmento_id": "S0119", "km_inicio": 119.0, "km_fin": 120.0}}, {"type": "Feature", "geometry": {"type": "LineString", "coordinates": [[-68.97363350639014, -28.76331115697095], [-68.97462332979335, -28.763066657449023], [-68.97561315319655, -28.7628221579271], [-68.97660297659974, -28.762577658405178], [-68.97759280000294, -28.76233315888325], [-68.97858262340614, -28.76208865936133], [-68.97957244680934, -28.761844159839406], [-68.98056227021253, -28.76159966031748], [-68.98130867311247, -28.76141528889162]]}, "properties": {"segmento_id": "S0120", "km_inicio": 120.0, "km_fin": 121.0}}, {"type": "Feature", "geometry": {"type": "LineString", "coordinates": [[-68.98130867311247, -28.76141528889162], [-68.98229849651565, -28.761170789369697], [-68.98328831991886, -28.760926289847774], [-68.98427814332206, -28.760681790325847], [-68.98526796672525, -28.760437290803925], [-68.98625779012845, -28.760192791282], [-68.98724761353165, -28.759948291760075], [-68.98823743693485, -28.759703792238152], [-68.98898383983476, -28.759519420812296]]}, "properties": {"segmento_id": "S0121", "km_inicio": 121.0, "km_fin": 122.0}}, {"type": "Feature", "geometry": {"type": "LineString", "coordinates": [[-68.98898383983476, -28.759519420812296], [-68.98997366323796, -28.759274921290373], [-68.99096348664116, -28.75903042176845], [-68.99195331004437, -28.758785922246524], [-68.99294313344755, -28.7585414227246], [-68.99393295685076, -28.758296923202675], [-68.99492278025396, -28.758052423680752], [-68.99591260365715, -28.757807924158826], [-68.99665900655708, -28.75762355273297]]}, "properties": {"segmento_id": "S0122", "km_inicio": 122.0, "km_fin": 123.0}}, {"type": "Feature", "geometry": {"type": "LineString", "coordinates": [[-68.99665900655708, -28.75762355273297], [-68.99764882996028, -28.757379053211043], [-68.99863865336347, -28.75713455368912], [-68.99962847676667, -28.756890054167197], [-69.00061830016988, -28.75664555464527], [-69.00160812357306, -28.756401055123348], [-69.00259794697627, -28.756156555601425], [-69.00358777037947, -28.7559120560795], [-69.00433417327939, -28.75572768465364]]}, "properties": {"segmento_id": "S0123", "km_inicio": 123.0, "km_fin": 124.0}}, {"type": "Feature", "geometry": {"type": "LineString", "coordinates": [[-69.00433417327939, -28.75572768465364], [-69.00532399668258, -28.755483185131716], [-69.00631382008578, -28.755238685609793], [-69.00730364348898, -28.754994186087867], [-69.00829346689217, -28.754749686565944], [-69.00928329029537, -28.75450518704402], [-69.01027311369857, -28.754260687522095], [-69.01126293710178, -28.754016188000172], [-69.0120093400017, -28.753831816574316]]}, "properties": {"segmento_id": "S0124", "km_inicio": 124.0, "km_fin": 125.0}}, {"type": "Feature", "geometry": {"type": "LineString", "coordinates": [[-69.0120093400017, -28.753831816574316], [-69.0129991634049, -28.753587317052393], [-69.01398898680809, -28.75334281753047], [-69.01497881021129, -28.753098318008544], [-69.01596863361449, -28.75285381848662], [-69.01695845701768, -28.752609318964694], [-69.01794828042088, -28.75236481944277], [-69.01893810382408, -28.75212031992085], [-69.019684506724, -28.75193594849499]]}, "properties": {"segmento_id": "S0125", "km_inicio": 125.0, "km_fin": 126.0}}, {"type": "Feature", "geometry": {"type": "LineString", "coordinates": [[-69.019684506724, -28.75193594849499], [-69.0206743301272, -28.751691448973066], [-69.0216641535304, -28.75144694945114], [-69.0226539769336, -28.751202449929217], [-69.0236438003368, -28.75095795040729], [-69.02463362373999, -28.750713450885367], [-69.0256234471432, -28.750468951363445], [-69.02661327054639, -28.750224451841518], [-69.02735967344631, -28.750040080415665]]}, "properties": {"segmento_id": "S0126", "km_inicio": 126.0, "km_fin": 127.0}}, {"type": "Feature", "geometry": {"type": "LineString", "coordinates": [[-69.02735967344631, -28.750040080415665], [-69.02834949684951, -28.74979558089374], [-69.02933932025272, -28.749551081371816], [-69.0303291436559, -28.749306581849893], [-69.03131896705911, -28.749062082327967], [-69.03230879046231, -28.748817582806044], [-69.0332986138655, -28.74857308328412], [-69.0342884372687, -28.74832858376219], [-69.03503484016862, -28.748144212336335]]}, "properties": {"segmento_id": "S0127", "km_inicio": 127.0, "km_fin": 128.0}}, {"type": "Feature", "geometry": {"type": "LineString", "coordinates": [[-69.03503484016862, -28.748144212336335], [-69.03602466357182, -28.747899712814412], [-69.03701448697501, -28.74765521329249], [-69.03800431037823, -28.747410713770563], [-69.03899413378142, -28.74716621424864], [-69.0399839571846, -28.746921714726714], [-69.04097378058782, -28.74667721520479], [-69.04196360399101, -28.746432715682868], [-69.04271000689093, -28.74624834425701]]}, "properties": {"segmento_id": "S0128", "km_inicio": 128.0, "km_fin": 129.0}}, {"type": "Feature", "geometry": {"type": "LineString", "coordinates": [[-69.04271000689093, -28.74624834425701], [-69.04369983029413, -28.746003844735085], [-69.04468965369733, -28.74575934521316], [-69.04567947710052, -28.745514845691236], [-69.04660926768346, -28.745482378947685], [-69.04735303822326, -28.746106925258136], [-69.04809680876306, -28.746731471568584], [-69.04889131424875, -28.747305113450324], [-69.04949513995531, -28.74773296025583]]}, "properties": {"segmento_id": "S0129", "km_inicio": 129.0, "km_fin": 130.0}}]}