{"type": "Feature", "geometry": {"type": "LineString", "coordinates": [[-68.5810765, -29.5090046], [-68.581367, -29.5085086], [-68.574497, -29.5067563], [-68.5829983, -29.5016434], [-68.5833832, -29.4999347], [-68.5832604, -29.4994161], [-68.5831263, -29.4990589], [-68.5826301, -29.4983236], [-68.5819488, -29.4978123], [-68.5815706, -29.4974901], [-68.5811629, -29.4970326], [-68.5809993, -29.4966731], [-68.5810127, -29.4960287], [-68.580951, -29.4956669], [-68.5804736, -29.4948007], [-68.5846296, -29.494661], [-68.5795563, -29.493533], [-68.5793176, -29.4931782], [-68.5790252, -29.492797600000003], [-68.5787007, -29.492326], [-68.5782581, -29.4917961], [-68.5780623, -29.4913641], [-68.5776197, -29.490715100000003], [-68.5769384, -29.4897999], [-68.5858921, -29.489292599999995], [-68.5873447, -29.484595], [-68.5934333, -29.4575519], [-68.5860472, -29.426784], [-68.5866641, -29.4264312], [-68.5872328, -29.4259593], [-68.5880052, -29.4252328], [-68.58848, -29.424602], [-68.5896977, -29.423193199999996], [-68.5902288, -29.4225087], [-68.5908162, -29.4217962], [-68.5911756, -29.421378000000004], [-68.591468, -29.4210182], [-68.5922753, -29.4203477], [-68.5925891, -29.4199995], [-68.5930397, -29.4194785], [-68.5932865, -29.4189902], [-68.5935681, -29.4184879], [-68.59378, -29.4182473], [-68.5946571, -29.4179903], [-68.5956576, -29.4171889], [-68.596245, -29.4164553], [-68.5964354, -29.4160581], [-68.5966071, -29.415481], [-68.5970899, -29.4148969], [-68.5986107, -29.413679600000002], [-68.5926629, -29.374652], [-68.5933898, -29.3731888], [-68.5935856, -29.3727284], [-68.5943715, -29.370933200000003], [-68.5999835, -29.3708005], [-68.5998255, -29.370497600000004], [-68.5998413, -29.3699881], [-68.5951265, -29.3691275], [-68.5954403, -29.3688423], [-68.5962396, -29.3681645], [-68.5976451, -29.3665749], [-68.5988843, -29.3651397], [-68.5993912, -29.3645156], [-68.5995682, -29.3642397], [-68.5996782, -29.363825999999996], [-68.5999625, -29.362746], [-68.6001717, -29.3619161], [-68.6002683, -29.3610956], [-68.6006235, -29.3609475], [-68.6013898, -29.3604173], [-68.6008047, -29.3583698], [-68.6023221, -29.3601625], [-68.6013653, -29.3578298], [-68.6030173, -29.360073], [-68.6032702, -29.359212200000005], [-68.603523, -29.3588817], [-68.6036257, -29.358131200000003], [-68.6050557, -29.3587784], [-68.6065331, -29.3606996], [-68.606778, -29.3607271], [-68.6077419, -29.3610852], [-68.6082712, -29.360451700000002], [-68.6087611, -29.3597287], [-68.6096776, -29.3591365], [-68.6101832, -29.359405], [-68.6110286, -29.3595152], [-68.6123954, -29.359473900000005], [-68.6129642, -29.3590608], [-68.6123954, -29.3570776], [-68.6128773, -29.3566713], [-68.6133039, -29.356451], [-68.6138017, -29.3565474], [-68.6146233, -29.3567815], [-68.6154288, -29.3566802], [-68.6158016, -29.3563366], [-68.6161986, -29.355943799999995], [-68.6167592, -29.3557217], [-68.6175692, -29.3556048], [-68.6178348, -29.3558947], [-68.6183538, -29.3552904], [-68.619137, -29.355353500000003], [-68.6194588, -29.3554915], [-68.6201535, -29.3560432], [-68.6216261, -29.356781899999998], [-68.6218514, -29.3560619], [-68.6220659, -29.355547599999998], [-68.6222376, -29.3548088], [-68.622656, -29.3544652], [-68.6229403, -29.3538924], [-68.623112, -29.35371], [-68.6233132, -29.3534716], [-68.6239663, -29.3533956], [-68.6243284, -29.3531338], [-68.6246368, -29.3527527], [-68.6249004, -29.3524155], [-68.6255173, -29.3518883], [-68.6251679, -29.351537], [-68.6259471, -29.350930300000005], [-68.6263414, -29.3507783], [-68.6282793, -29.351191], [-68.6282981, -29.3511021], [-68.6278622, -29.349911], [-68.6293495, -29.3506322], [-68.6285998, -29.3493662], [-68.6307228, -29.3503143], [-68.6291684, -29.3488963], [-68.6295225, -29.3483913], [-68.6296968, -29.347647799999997], [-68.6295198, -29.3465186], [-68.6294957, -29.3459598], [-68.6297827, -29.345581], [-68.6298551, -29.3452631], [-68.6296941, -29.3449381], [-68.6290719, -29.3440356], [-68.6289431, -29.3434207], [-68.6292274, -29.342773], [-68.629898, -29.3425018], [-68.6299865, -29.3423335], [-68.6300509, -29.3418308], [-68.635186, -29.3441934], [-68.6305283, -29.3410615], [-68.6309762, -29.3406079], [-68.6358699, -29.342757799999998], [-68.6318748, -29.3399299], [-68.6359611, -29.3418039], [-68.6362562, -29.3411399], [-68.6362669, -29.3406068], [-68.6330818, -29.3387257], [-68.6365834, -29.3401111], [-68.6344685, -29.338059300000005], [-68.6373398, -29.3393068], [-68.6355253, -29.3376735], [-68.6359303, -29.3375496], [-68.6367644, -29.337276], [-68.6371051, -29.3370492], [-68.637376, -29.3369113], [-68.6379527, -29.3364857], [-68.6383282, -29.3358848], [-68.6383765, -29.3355481], [-68.6384435, -29.3350734], [-68.6404659, -29.335618199999995], [-68.638952, -29.3345527], [-68.6393796, -29.334114699999997], [-68.6398302, -29.3337593], [-68.6404042, -29.3335161], [-68.6408092, -29.3333594], [-68.6410697, -29.332719400000002], [-68.6407321, -29.3319968], [-68.6405551, -29.331447300000004], [-68.6405631, -29.3311176], [-68.6409896, -29.3304254], [-68.6410727, -29.3302477], [-68.6421644, -29.3304254], [-68.6426338, -29.3299414], [-68.6428296, -29.329410599999996], [-68.6430495, -29.329165], [-68.6434197, -29.3287885], [-68.6450183, -29.3289896], [-68.6451578, -29.3288049], [-68.6456888, -29.3282647], [-68.6458927, -29.327754999999996], [-68.6461341, -29.3274814], [-68.6463969, -29.326957499999995], [-68.6463996, -29.326733], [-68.646523, -29.326017500000003], [-68.6465605, -29.3255287], [-68.6465525, -29.325236399999998], [-68.6466759, -29.324595699999996], [-68.6466383, -29.323983], [-68.6466759, -29.3234451], [-68.6467832, -29.3230639], [-68.6469521, -29.3228277], [-68.6473196, -29.3222946], [-68.6474215, -29.3216935], [-68.6472901, -29.3211884], [-68.6474591, -29.3202553], [-68.6475691, -29.3200682], [-68.648084, -29.319394699999997], [-68.6483818, -29.3187867], [-68.6487734, -29.3181809], [-68.6494332, -29.3171917], [-68.6499053, -29.3165322], [-68.65027, -29.3161416], [-68.6506885, -29.3158236], [-68.6512759, -29.3153441], [-68.6519947, -29.3148787], [-68.6526419, -29.3144639], [-68.6543041, -29.3139268], [-68.6546876, -29.3139315], [-68.6555245, -29.3140999], [-68.6559697, -29.3142145], [-68.6564606, -29.314294], [-68.6569863, -29.3140204], [-68.6576434, -29.313866], [-68.6585849, -29.3136088], [-68.6595988, -29.3133328], [-68.660012, -29.313259], [-68.6607628, -29.3130498], [-68.661428, -29.3128533], [-68.6621683, -29.3126662], [-68.6627557, -29.3125072], [-68.6633539, -29.3122172], [-68.6635228, -29.312069900000004], [-68.664239, -29.3117307], [-68.6645099, -29.3116629], [-68.6651724, -29.311711999999996], [-68.6661273, -29.3119646], [-68.6667334, -29.312126000000003], [-68.6673503, -29.3123599], [-68.6680799, -29.3117915], [-68.6682569, -29.3113168], [-68.6687746, -29.3106572], [-68.669641, -29.3099649], [-68.670274, -29.3095697], [-68.6716097, -29.308306700000003], [-68.6737555, -29.306274199999997], [-68.676545, -29.3038557], [-68.6807292, -29.300305], [-68.6826175, -29.2987659], [-68.6831861, -29.2982607], [-68.6834972, -29.298148399999995], [-68.6839586, -29.297994], [-68.6846412, -29.2977683], [-68.6850891, -29.2976467], [-68.6855183, -29.297529700000002], [-68.6852568, -29.2967309], [-68.686846, -29.2971087], [-68.6880074, -29.2967508], [-68.6882729, -29.2966993], [-68.6881267, -29.2952128], [-68.6895456, -29.294366], [-68.6898326, -29.294235], [-68.6904415, -29.2941905], [-68.6910691, -29.2942443], [-68.6916941, -29.2942093], [-68.6923539, -29.2941133], [-68.693054, -29.2940876], [-68.6936038, -29.29409], [-68.694446, -29.2938818], [-68.6947263, -29.2937262], [-68.6950187, -29.2935086], [-68.6954371, -29.2931203], [-68.6960701, -29.2926782], [-68.6985243, -29.2958245], [-68.6993504, -29.2961449], [-68.6972637, -29.2918291], [-68.698637, -29.2909472], [-68.6997823, -29.290208], [-68.701228, -29.2896301], [-68.7028641, -29.2890102], [-68.7034596, -29.2887342], [-68.7041972, -29.2883014], [-68.7078074, -29.2861702], [-68.7081669, -29.2859503], [-68.7084673, -29.2857936], [-68.7089823, -29.2856018], [-68.7094543, -29.2854801], [-68.7099559, -29.2854076], [-68.7105621, -29.2852953], [-68.7110073, -29.2851128], [-68.7114392, -29.2849772], [-68.7123323, -29.2844157], [-68.7125952, -29.2841279], [-68.7130109, -29.2835595], [-68.7139122, -29.2827383], [-68.7148912, -29.2817932], [-68.7163315, -29.2803006], [-68.7168063, -29.2798982], [-68.7171362, -29.2796081], [-68.7174661, -29.2793835], [-68.7177745, -29.2792314], [-68.7186436, -29.2788664], [-68.7202878, -29.2781528], [-68.7206767, -29.2780569], [-68.7210468, -29.2778955], [-68.7217898, -29.2775656], [-68.7235394, -29.2766787], [-68.7241126, -29.276309199999996], [-68.7245686, -29.2758109], [-68.7246535, -29.275345500000004], [-68.7246108, -29.2746615], [-68.7246898, -29.2745322], [-68.7253143, -29.2736948], [-68.7251344, -29.2734731], [-68.7253591, -29.2729115], [-68.7255369, -29.2725681], [-68.7256783, -29.2720387], [-68.7259868, -29.2715895], [-68.7261665, -29.2710841], [-68.7262362, -29.2708361], [-68.7263516, -29.2704056], [-68.7264589, -29.2699213], [-68.7266117, -29.2694908], [-68.7268692, -29.2690836], [-68.7271884, -29.268454199999997], [-68.7273225, -29.268136], [-68.7276498, -29.2675745], [-68.7277785, -29.2670106], [-68.7277892, -29.2667883], [-68.7277463, -29.265943600000003], [-68.7276498, -29.265726], [-68.7276578, -29.2654499], [-68.7275264, -29.2645608], [-68.7272367, -29.2639992], [-68.727116, -29.2635031], [-68.727285, -29.2630071], [-68.7274077, -29.2626766], [-68.7276571, -29.2621641], [-68.7279227, -29.261731199999996], [-68.728266, -29.2612562], [-68.729023, -29.260391], [-68.727285, -29.239329], [-68.7254758, -29.237897], [-68.7228003, -29.2377375], [-68.7218025, -29.2376953], [-68.7208369, -29.2374706], [-68.7202763, -29.2374472], [-68.7195038, -29.2372249], [-68.7188494, -29.2369768], [-68.7184664, -29.2366744], [-68.7175887, -29.236387], [-68.7171596, -29.2362582], [-68.715848, -29.236220799999998], [-68.7150058, -29.2360055], [-68.7148582, -29.2358276], [-68.7128064, -29.232272199999997], [-68.7133079, -29.2316801], [-68.7132221, -29.2311019], [-68.7131202, -29.2307532], [-68.7130719, -29.230392700000003], [-68.7129458, -29.2297326], [-68.7127769, -29.2294845], [-68.7125033, -29.2292341], [-68.7119322, -29.228682199999998], [-68.7112051, -29.2264018], [-68.7113365, -29.2259056], [-68.7112104, -29.225524], [-68.71091, -29.225069900000005], [-68.7108269, -29.2248288], [-68.7105022, -29.2244406], [-68.7101617, -29.224114900000004], [-68.7097701, -29.2237637], [-68.7101295, -29.222864899999998], [-68.7102556, -29.222656499999996], [-68.7092276, -29.2224851], [-68.7119963, -29.2204655], [-68.7124121, -29.2200394], [-68.7132892, -29.2191522], [-68.7133267, -29.218663], [-68.7096723, -29.2193853], [-68.7099551, -29.2184325], [-68.7095902, -29.2180572], [-68.7093188, -29.2175692], [-68.7092035, -29.2173936], [-68.7087605, -29.2169877], [-68.7084632, -29.2168271], [-68.7081199, -29.216305000000002], [-68.7079589, -29.2157198], [-68.7078704, -29.2152563], [-68.7076719, -29.2150081], [-68.7073742, -29.2143245], [-68.7072481, -29.214163], [-68.7069209, -29.213854000000005], [-68.7058239, -29.2138751], [-68.7049964, -29.2138529], [-68.7047802, -29.2133836], [-68.7045961, -29.212649], [-68.7045347, -29.2123633], [-68.6999801, -29.2101932], [-68.7016323, -29.2087791], [-68.701745, -29.2083858], [-68.7024155, -29.2074165], [-68.7029439, -29.2067399], [-68.7041134, -29.2058152], [-68.7046632, -29.2053727], [-68.705146, -29.204930200000003], [-68.7007103, -29.202659699999998], [-68.7058648, -29.2043449], [-68.7063959, -29.203694], [-68.7066534, -29.203195299999997], [-68.7025395, -29.2014422], [-68.7070289, -29.2026825], [-68.7072971, -29.2021136], [-68.7074849, -29.201837300000005], [-68.7077022, -29.2013363], [-68.7037787, -29.1992741], [-68.708429, -29.2008189], [-68.7048999, -29.1987309], [-68.7052164, -29.198384400000002], [-68.7100384, -29.199606000000003], [-68.7059137, -29.1979442], [-68.7067828, -29.197410399999995], [-68.707228, -29.1971856], [-68.7080488, -29.1971762], [-68.708655, -29.1969608], [-68.7098298, -29.1968718], [-68.713434, -29.1975199], [-68.7138793, -29.1970773], [-68.7143272, -29.1966044], [-68.714515, -29.1963257], [-68.7146625, -29.1961009], [-68.7149649, -29.195703400000003], [-68.7187958, -29.186636400000005], [-68.7183291, -29.184955], [-68.717503, -29.181892], [-68.7174019, -29.1812689], [-68.7172777, -29.1804308], [-68.717047, -29.1794378], [-68.7167519, -29.1785245], [-68.7166017, -29.1781311], [-68.7165856, -29.1776487], [-68.7166876, -29.177096], [-68.7167734, -29.1765667], [-68.7167841, -29.176229500000005], [-68.7167573, -29.1759438], [-68.7169397, -29.1755175], [-68.7170845, -29.1750866], [-68.7171543, -29.1743934], [-68.7172562, -29.1741218], [-68.7176102, -29.1733114], [-68.7179053, -29.1728196], [-68.7182969, -29.1722013], [-68.7188172, -29.171433199999996], [-68.7191284, -29.170852299999996], [-68.7196004, -29.170421399999995], [-68.7197688, -29.1702018], [-68.7202334, -29.169864], [-68.7203085, -29.1692504], [-68.7204963, -29.1686227], [-68.7206706, -29.1683698], [-68.7209255, -29.1681356], [-68.7212634, -29.167714], [-68.7217408, -29.167105], [-68.7224754, -29.166448800000005], [-68.7229035, -29.1660343], [-68.7241817, -29.1653906], [-68.7246108, -29.1651002], [-68.7254101, -29.164720700000004], [-68.726145, -29.1642617], [-68.7264957, -29.1639765], [-68.7266225, -29.163713600000005], [-68.7272575, -29.163086500000002], [-68.7273916, -29.1628241], [-68.7276222, -29.162505600000003], [-68.7280246, -29.1621449], [-68.7283572, -29.161639], [-68.7284698, -29.1614797], [-68.7287595, -29.1609643], [-68.7288668, -29.1602476], [-68.7288721, -29.1598402], [-68.7289204, -29.1593717], [-68.7289848, -29.1587439], [-68.7290277, -29.158444099999997], [-68.7292798, -29.1581068], [-68.7293227, -29.1574416], [-68.7294944, -29.156921599999997], [-68.729648, -29.1565463], [-68.7300684, -29.155994], [-68.7303078, -29.155703], [-68.7307638, -29.1551455], [-68.7309623, -29.1547801], [-68.731193, -29.1542929], [-68.7316221, -29.1537167], [-68.7320298, -29.153168499999996], [-68.7322336, -29.1529296], [-68.7325072, -29.1524471], [-68.7327379, -29.151763099999997], [-68.7330222, -29.1514164], [-68.7334782, -29.150793300000004], [-68.7338322, -29.1503014], [-68.7338698, -29.1499453], [-68.733843, -29.149659499999995], [-68.7338913, -29.1491676], [-68.7340576, -29.148774], [-68.7344921, -29.1482915], [-68.7348086, -29.1479495], [-68.7350982, -29.1474997], [-68.7352645, -29.1471811], [-68.7354738, -29.1467829], [-68.7356742, -29.1463852], [-68.7360156, -29.145719300000003], [-68.7362945, -29.1454195], [-68.7367666, -29.1450259], [-68.7374499, -29.1442347], [-68.7376913, -29.1439864], [-68.737879, -29.1438505], [-68.7386086, -29.1427448], [-68.7387427, -29.1423934], [-68.7389821, -29.1418165], [-68.7393181, -29.1413431], [-68.7397653, -29.1407107], [-68.7398887, -29.140307800000002], [-68.7399852, -29.1399798], [-68.740232, -29.1394832], [-68.7402374, -29.139009899999998], [-68.7398798, -29.1382041], [-68.7398957, -29.1378306], [-68.7399477, -29.137215399999995], [-68.7399524, -29.136547199999995], [-68.7400275, -29.1360744], [-68.7402856, -29.1350225], [-68.7405324, -29.134507], [-68.7408243, -29.1339786], [-68.7412781, -29.133490199999997], [-68.7416697, -29.1330638], [-68.741904, -29.132714], [-68.742308, -29.1321361], [-68.7425719, -29.1315177], [-68.7426573, -29.131036], [-68.7428552, -29.1304035], [-68.7428997, -29.129821100000004], [-68.7434775, -29.128064], [-68.7437189, -29.1271081], [-68.7440283, -29.126542099999998], [-68.7440948, -29.1262723], [-68.7441319, -29.12581], [-68.7445879, -29.1253039], [-68.7447797, -29.1247778], [-68.744958, -29.1240621], [-68.7455088, -29.1233055], [-68.7457695, -29.122598], [-68.7461411, -29.1221131], [-68.7466313, -29.1218304], [-68.7476486, -29.1214671], [-68.7479365, -29.1214], [-68.7484218, -29.1210254], [-68.7488687, -29.1203787], [-68.7492607, -29.1198321], [-68.7498236, -29.1193477], [-68.7502742, -29.1184244], [-68.750419, -29.118222899999996], [-68.7505322, -29.1179439], [-68.7506014, -29.117295], [-68.7508219, -29.1166156], [-68.7511546, -29.116095799999997], [-68.751321, -29.1153636], [-68.7513529, -29.1137594], [-68.7515705, -29.1130663], [-68.7517624, -29.1119875], [-68.7520055, -29.111249699999995], [-68.7519735, -29.1105398], [-68.7518328, -29.1097461], [-68.7519325, -29.109450699999996], [-68.7522773, -29.108580400000005], [-68.7525211, -29.1076472], [-68.752902, -29.1068386], [-68.7532729, -29.1058734], [-68.7536156, -29.1049722], [-68.7539595, -29.104261], [-68.7545327, -29.103798399999995], [-68.7554668, -29.1027084], [-68.756113, -29.1019369], [-68.7562153, -29.1016686], [-68.7560629, -29.1011412], [-68.7560618, -29.1005282], [-68.7561385, -29.1002431], [-68.7562126, -29.099630099999995], [-68.7560702, -29.0989845], [-68.7559338, -29.09832], [-68.7557223, -29.0976571], [-68.755527, -29.0967912], [-68.755182, -29.0957579], [-68.7549734, -29.0952755], [-68.7548938, -29.094689399999996], [-68.7549418, -29.0943332], [-68.7551344, -29.0938336], [-68.7554884, -29.093133300000005], [-68.7558421, -29.0922721], [-68.7566312, -29.0908231], [-68.7572582, -29.0896043], [-68.7589664, -29.0867306], [-68.7595678, -29.0860652], [-68.7598365, -29.0854838], [-68.7601372, -29.0847737], [-68.7605583, -29.084326400000002], [-68.7610126, -29.0840469], [-68.7615948, -29.0834934], [-68.7617483, -29.0829175], [-68.7620363, -29.082565199999998], [-68.7625161, -29.0817657], [-68.7632518, -29.0808487], [-68.7636677, -29.0798926], [-68.7636997, -29.0795515], [-68.7640159, -29.0786062], [-68.7642551, -29.0778635], [-68.7643779, -29.077186300000005], [-68.7645506, -29.0765377], [-68.7653503, -29.0752013], [-68.7678711, -29.0724894], [-68.7681206, -29.0715388], [-68.7684085, -29.0710579], [-68.7683893, -29.0702359], [-68.7698329, -29.0705179], [-68.7686175, -29.0697301], [-68.7694224, -29.0687263], [-68.7698838, -29.0686348], [-68.7707312, -29.068077099999996], [-68.7712057, -29.067579500000004], [-68.7721317, -29.0668502], [-68.7735558, -29.066691899999995], [-68.7729366, -29.0660694], [-68.773936, -29.0654725], [-68.7744025, -29.0648682], [-68.7747984, -29.064525], [-68.7749914, -29.0641189], [-68.7754986, -29.0631665], [-68.775852, -29.0628033], [-68.7773931, -29.0616278], [-68.7784402, -29.061238800000005], [-68.7791077, -29.060541], [-68.7798275, -29.0598774], [-68.7801034, -29.05975], [-68.7812149, -29.0592367], [-68.7812934, -29.0590308], [-68.7812591, -29.0584956], [-68.781538, -29.058305999999998], [-68.7819478, -29.057909600000002], [-68.782131, -29.0566626], [-68.7822096, -29.0563422], [-68.7817646, -29.0551524], [-68.7816097, -29.0543492], [-68.7810445, -29.0525214], [-68.7809265, -29.0512834], [-68.7808506, -29.0504128], [-68.7806046, -29.0497264], [-68.7804061, -29.0487932], [-68.7804383, -29.0481038], [-68.7806583, -29.0467485], [-68.7810713, -29.0452337], [-68.7816078, -29.0436955], [-68.7820154, -29.0430952], [-68.7823159, -29.0428325], [-68.7824446, -29.0424433], [-68.7823856, -29.0411582], [-68.7824231, -29.0405908], [-68.782627, -29.0401311], [-68.7829381, -29.0396293], [-68.7830669, -29.0390853], [-68.7825412, -29.0385881], [-68.7817633, -29.038241], [-68.78142, -29.037833], [-68.7810391, -29.0371717], [-68.7809104, -29.0366136], [-68.7804812, -29.035619300000004], [-68.7801594, -29.0350283], [-68.7797517, -29.0345358], [-68.7790811, -29.0338463], [-68.7787646, -29.033443], [-68.7782764, -29.0327113], [-68.7776005, -29.0317544], [-68.7772358, -29.0310321], [-68.7771875, -29.0301878], [-68.7770587, -29.0291419], [-68.7765435, -29.0280755], [-68.7761682, -29.0269983], [-68.7760717, -29.0265621], [-68.775841, -29.0210129], [-68.7757552, -29.0204828], [-68.7745643, -29.0174947], [-68.7742156, -29.0164439], [-68.7739474, -29.0129584], [-68.7738508, -29.0119967], [-68.7737438, -29.011167], [-68.7740724, -29.0100862], [-68.7740674, -29.0093982], [-68.7742707, -29.0075311], [-68.774353, -29.005612999999997], [-68.774261, -29.0050118], [-68.7742755, -29.0043047], [-68.7740867, -29.0029752], [-68.7743229, -29.0019381], [-68.7743926, -29.001534600000003], [-68.7743163, -29.0012876], [-68.7741109, -29.000209700000003], [-68.774063, -28.9992276], [-68.7739397, -28.998239600000005], [-68.7740332, -28.9973823], [-68.7739876, -28.9969581], [-68.7736453, -28.9951316], [-68.7734605, -28.9928499], [-68.7735015, -28.9915324], [-68.7733372, -28.9892507], [-68.773309, -28.9879792], [-68.7732824, -28.985807000000005], [-68.773481, -28.9823752], [-68.7736385, -28.9819201], [-68.773974, -28.9813391], [-68.7745628, -28.9788415], [-68.7746518, -28.9767811], [-68.7752189, -28.975538], [-68.7755513, -28.9750932], [-68.7760878, -28.974281300000005], [-68.776497, -28.9735813], [-68.7766188, -28.9730095], [-68.7766325, -28.9725055], [-68.7754706, -28.9683039], [-68.7753351, -28.9672619], [-68.7753641, -28.9662877], [-68.7749962, -28.9651102], [-68.7750446, -28.962441600000002], [-68.7755384, -28.959468], [-68.7760806, -28.9573754], [-68.7771554, -28.953512], [-68.7772232, -28.9527664], [-68.7774943, -28.951682], [-68.777403, -28.9514363], [-68.7772425, -28.9510042], [-68.7778816, -28.949377400000003], [-68.7783581, -28.9481507], [-68.7785497, -28.9476574], [-68.7790919, -28.9462255], [-68.7792662, -28.9452087], [-68.7797689, -28.9444678], [-68.7798614, -28.9439136], [-68.7803338, -28.9432875], [-68.7806624, -28.9425775], [-68.7809466, -28.9412204], [-68.7817374, -28.939363], [-68.7818244, -28.9388185], [-68.7818983, -28.938355599999998], [-68.7821719, -28.9372286], [-68.7821888, -28.935896], [-68.7827795, -28.9343135], [-68.7834258, -28.9334471], [-68.783893, -28.9324598], [-68.7840624, -28.9321166], [-68.7837661, -28.9301465], [-68.7841667, -28.9294963], [-68.7845295, -28.9284896], [-68.7843481, -28.9270364], [-68.7839065, -28.9256162], [-68.7838004, -28.9244806], [-68.7837593, -28.9227397], [-68.7839441, -28.9217629], [-68.7842659, -28.9210947], [-68.7843823, -28.9201239], [-68.7847452, -28.9190152], [-68.7846185, -28.9173791], [-68.7846528, -28.9168787], [-68.7849369, -28.9161835], [-68.7851937, -28.9158479], [-68.7854264, -28.9154973], [-68.7856147, -28.914721200000002], [-68.785714, -28.9138372], [-68.7858133, -28.9130401], [-68.7861351, -28.9123029], [-68.7869704, -28.9109185], [-68.7871723, -28.910358099999996], [-68.7874839, -28.9099086], [-68.7878707, -28.9094351], [-68.7881822, -28.90862], [-68.7881685, -28.908014599999998], [-68.7883671, -28.9069358], [-68.7883774, -28.9065851], [-68.7886752, -28.9057251], [-68.7889867, -28.9046851], [-68.7893427, -28.903819], [-68.7891577, -28.9032729], [-68.7890107, -28.9028391], [-68.7891476, -28.9024704], [-68.7897125, -28.9017182], [-68.7898768, -28.9012806], [-68.7900137, -28.9004505], [-68.7903458, -28.8995604], [-68.7902944, -28.8987901], [-68.7902023, -28.8982524], [-68.7900788, -28.8975314], [-68.7898734, -28.896923], [-68.7907326, -28.8960358], [-68.7906744, -28.8956192], [-68.7902739, -28.8943244], [-68.789531, -28.8929038], [-68.7888258, -28.8907607], [-68.7881206, -28.889672700000002], [-68.7880008, -28.8893041], [-68.7877475, -28.8876975], [-68.7875797, -28.8869301], [-68.7877988, -28.8852216], [-68.7889402, -28.8793028], [-68.7890977, -28.8787512], [-68.7892346, -28.8779778], [-68.7892962, -28.877672], [-68.7885842, -28.8762991], [-68.7885033, -28.8760584], [-68.7884678, -28.875189999999996], [-68.7887964, -28.8747643], [-68.7899672, -28.8734213], [-68.7909326, -28.8719823], [-68.7919322, -28.8716046], [-68.7924936, -28.8711909], [-68.7936165, -28.8705014], [-68.7945956, -28.8694342], [-68.7966838, -28.866538199999997], [-68.7986556, -28.864349600000004], [-68.7999633, -28.863552099999996], [-68.8008603, -28.8630545], [-68.8021474, -28.8614475], [-68.8025788, -28.8608179], [-68.8031881, -28.8601343], [-68.8038043, -28.859001000000003], [-68.8047766, -28.8574899], [-68.8056735, -28.855738900000002], [-68.8061048, -28.8547375], [-68.8066525, -28.8542337], [-68.8093844, -28.8508936], [-68.811589, -28.849940100000005], [-68.8126571, -28.8492204], [-68.8202706, -28.8396369], [-68.8225163, -28.8372978], [-68.8300356, -28.8295006], [-68.8314597, -28.828121], [-68.8328564, -28.8272453], [-68.8344448, -28.8263096], [-68.8352751, -28.8258524], [-68.8370225, -28.825115300000004], [-68.8371206, -28.8248821], [-68.8374989, -28.8245875], [-68.8380208, -28.8243021], [-68.8386022, -28.8243942], [-68.8391836, -28.8241395], [-68.8394918, -28.8240842], [-68.8400452, -28.823884799999995], [-68.8408026, -28.823738], [-68.8414953, -28.8230803], [-68.8419021, -28.822622], [-68.8423138, -28.822431000000005], [-68.842585, -28.822380099999997], [-68.8435295, -28.8217987], [-68.8442561, -28.821527200000002], [-68.845031, -28.8211283], [-68.8455541, -28.8211622], [-68.8460724, -28.8211622], [-68.8470944, -28.820636], [-68.8478161, -28.8204069], [-68.8489979, -28.820911799999998], [-68.8500296, -28.8212344], [-68.8508869, -28.821590800000003], [-68.8514439, -28.821590800000003], [-68.851904, -28.8214126], [-68.8523641, -28.8210943], [-68.8530132, -28.821141], [-68.8538317, -28.8211792], [-68.8548925, -28.8208779], [-68.855682, -28.821001000000003], [-68.8567475, -28.8215738], [-68.8576, -28.821790299999996], [-68.8580747, -28.8219685], [-68.8595035, -28.8229233], [-68.8606999, -28.8228257], [-68.8615087, -28.822596500000003], [-68.8618478, -28.8226559], [-68.8922676, -28.804470999999996], [-68.8927979, -28.8034205], [-68.893384, -28.8029855], [-68.8936286, -28.802858100000005], [-68.8945852, -28.8025228], [-68.8944879, -28.8017586], [-68.8945153, -28.801308399999996], [-68.8945358, -28.8007232], [-68.8946398, -28.7993979], [-68.8946434, -28.7991517], [-68.8948592, -28.7980224], [-68.8948438, -28.7975437], [-68.8947856, -28.796957], [-68.8946264, -28.7955793], [-68.8946794, -28.7951021], [-68.895248, -28.7943571], [-68.8956316, -28.793913], [-68.895975, -28.7935456], [-68.8963539, -28.7930642], [-68.8966736, -28.792927199999998], [-68.8973058, -28.7924914], [-68.8979642, -28.7923357], [-68.8984094, -28.7922507], [-68.8989232, -28.7919622], [-68.899456, -28.7915471], [-68.8999462, -28.7910843], [-68.8999214, -28.790621499999997], [-68.8999885, -28.7894465], [-68.9000303, -28.788844], [-68.9207481, -28.7763768], [-68.9214112, -28.7762417], [-68.9218834, -28.7758543], [-68.9222652, -28.7756458], [-68.9225432, -28.7755578], [-68.9234775, -28.7756341], [-68.9240736, -28.7755901], [-68.9249109, -28.77564], [-68.925517, -28.7759511], [-68.9278345, -28.777888499999996], [-68.9283871, -28.778363999999996], [-68.9292645, -28.7787309], [-68.9324548, -28.7815319], [-68.9415103, -28.7744044], [-68.9414866, -28.7741221], [-68.9395211, -28.7700329], [-68.9403073, -28.7706847], [-68.9415955, -28.7729805], [-68.9414298, -28.7712659], [-69.0464278, -28.74533], [-69.0481783, -28.7467999], [-69.0515591, -28.7491954]]}, "properties": {"fuente": "openstreetmap", "metodo": "proyeccion sobre poligonal de puntos de control", "vertices": 922, "longitud_km": 133.69}}